{
"type": "FeatureCollection",
"name": "0d0a2c93-9974-4bfa-b610-7900cce854ba",
"crs": { "type": "name", "properties": { "name": "urn:ogc:def:crs:OGC:1.3:CRS84" } },
"features": [
{ "type": "Feature", "properties": { "feature_type": "farm", "confidence": 1.0, "classification_method": "heuristic" }, "geometry": { "type": "Polygon", "coordinates": [ [ [ 15.849800127346478, 51.370665091816747 ], [ 15.849958046973121, 51.368365949763287 ], [ 15.853631097138917, 51.368464735664993 ], [ 15.853473360910161, 51.370763885794986 ], [ 15.849800127346478, 51.370665091816747 ] ] ] } },
{ "type": "Feature", "properties": { "feature_type": "farm", "confidence": 1.0, "classification_method": "heuristic" }, "geometry": { "type": "Polygon", "coordinates": [ [ [ 15.853014205573462, 51.370751542837546 ], [ 15.853171964727151, 51.368452393716602 ], [ 15.854248056830368, 51.368481317328452 ], [ 15.85424759483322, 51.368488053125645 ], [ 15.854251181810412, 51.368488149521205 ], [ 15.854250719813608, 51.36849488531842 ], [ 15.854254306791347, 51.368494981713887 ], [ 15.85425369079603, 51.36850396277687 ], [ 15.854250103817591, 51.36850386638136 ], [ 15.854249333822118, 51.368515092710005 ], [ 15.854252920801432, 51.368515189105544 ], [ 15.854252304805398, 51.368524170168463 ], [ 15.854248717825385, 51.368524073772889 ], [ 15.854244251839548, 51.368589186478282 ], [ 15.854247838824632, 51.368589282874069 ], [ 15.854246760826772, 51.36860499973389 ], [ 15.854243173840461, 51.368604903338046 ], [ 15.854234395811623, 51.368732883479709 ], [ 15.854237982807902, 51.368732979875986 ], [ 15.85423644279793, 51.368755432532105 ], [ 15.854232855799902, 51.368755336135735 ], [ 15.854226079724706, 51.368854127820853 ], [ 15.854222492719002, 51.368854031424043 ], [ 15.854220182681942, 51.368887710406959 ], [ 15.85422376969027, 51.368887806803883 ], [ 15.85422207566217, 51.368912504724605 ], [ 15.854225662672443, 51.368912601121508 ], [ 15.854224276649239, 51.36893280851114 ], [ 15.854220689637396, 51.368932712114173 ], [ 15.854216993563446, 51.36898659848589 ], [ 15.854213406547423, 51.368986502088632 ], [ 15.854211866511482, 51.369008954743236 ], [ 15.854215453529251, 51.369009051140573 ], [ 15.854212835466562, 51.369047220653258 ], [ 15.854209248445818, 51.369047124255786 ], [ 15.854208478425409, 51.369058350582939 ], [ 15.854212065447028, 51.369058446980446 ], [ 15.854211295426998, 51.369069673307614 ], [ 15.854207708404505, 51.369069576910071 ], [ 15.854206168361207, 51.369092029564221 ], [ 15.854209755385448, 51.369092125961856 ], [ 15.854206059277614, 51.369146012331527 ], [ 15.854202472249176, 51.369145915933714 ], [ 15.854200624188861, 51.369172859118208 ], [ 15.8542042112194, 51.369172955516106 ], [ 15.854199899072432, 51.369235822946123 ], [ 15.854196312036999, 51.369235726547998 ], [ 15.854194463967138, 51.369262669731924 ], [ 15.854198051004674, 51.36926276613012 ], [ 15.854194354860567, 51.369316652497616 ], [ 15.854197941902319, 51.369316748895912 ], [ 15.854197479884023, 51.369323484691819 ], [ 15.854193892841748, 51.369323388293516 ], [ 15.854191428738355, 51.369359312538073 ], [ 15.85419501578343, 51.369359408936504 ], [ 15.854194399757487, 51.369368389997625 ], [ 15.854190812711712, 51.369368293599166 ], [ 15.854189888671153, 51.369381765190759 ], [ 15.854193475717974, 51.369381861589275 ], [ 15.854191627636803, 51.369408804772441 ], [ 15.85418804058788, 51.36940870837384 ], [ 15.854187116545171, 51.369422179965312 ], [ 15.854190703595144, 51.369422276363956 ], [ 15.854187007421345, 51.36947616272959 ], [ 15.854183420367173, 51.369476066330769 ], [ 15.85418111025011, 51.369509745308825 ], [ 15.854184697306902, 51.369509841707774 ], [ 15.85418423528348, 51.369516577503369 ], [ 15.85418064822616, 51.369516481104405 ], [ 15.854179416161418, 51.369534443225902 ], [ 15.854183003220138, 51.369534539624929 ], [ 15.85418284921213, 51.369536784890109 ], [ 15.854179262153238, 51.369536688491067 ], [ 15.854175719959557, 51.369588329589916 ], [ 15.854179307022475, 51.369588425989136 ], [ 15.854175610813355, 51.369642312352653 ], [ 15.854172023746242, 51.369642215953256 ], [ 15.854166787424436, 51.369718554966802 ], [ 15.854170374497496, 51.369718651366455 ], [ 15.854168064350839, 51.369752330342692 ], [ 15.854164477275154, 51.369752233942911 ], [ 15.85415847086608, 51.369839799279561 ], [ 15.854162057948583, 51.36983989567964 ], [ 15.854161749927139, 51.369844386209699 ], [ 15.854158162844286, 51.369844289809606 ], [ 15.854157238778429, 51.369857761399679 ], [ 15.854160825862332, 51.369857857799829 ], [ 15.854158361686006, 51.369893782039959 ], [ 15.854154774599303, 51.369893685639688 ], [ 15.854154466576558, 51.369898176169663 ], [ 15.854158053663607, 51.369898272569941 ], [ 15.854154203376918, 51.369954404194459 ], [ 15.854150616285493, 51.369954307793989 ], [ 15.854145841907309, 51.37002391100711 ], [ 15.854149429004156, 51.370024007407821 ], [ 15.854146810791624, 51.370062176911439 ], [ 15.854143223691803, 51.3700620805106 ], [ 15.854142145601395, 51.370077797364871 ], [ 15.854145732702442, 51.370077893765767 ], [ 15.854144038560326, 51.37010259167959 ], [ 15.854140451457358, 51.370102495278616 ], [ 15.854136447107336, 51.370160872165073 ], [ 15.854140034214854, 51.370160968566246 ], [ 15.854104148518777, 51.370684115245147 ], [ 15.854100561370506, 51.370684018842184 ], [ 15.854100253333756, 51.370688509371313 ], [ 15.854103840482377, 51.370688605774305 ], [ 15.854100914132614, 51.370731265800998 ], [ 15.854104501284578, 51.370731362204026 ], [ 15.854104193247691, 51.370735852733141 ], [ 15.854100606095377, 51.370735756330099 ], [ 15.854099990020666, 51.3707447373883 ], [ 15.854103577173683, 51.37074483379137 ], [ 15.854103269136559, 51.370749324320464 ], [ 15.854099681983195, 51.370749227917386 ], [ 15.854097833756681, 51.370776171091798 ], [ 15.854094246601237, 51.370776074688521 ], [ 15.854093938562858, 51.370780565217551 ], [ 15.853014205573462, 51.370751542837546 ] ] ] } },
{ "type": "Feature", "properties": { "feature_type": "farm", "confidence": 1.0, "classification_method": "heuristic" }, "geometry": { "type": "Polygon", "coordinates": [ [ [ 15.849938308161732, 51.368653342588637 ], [ 15.849984878896674, 51.367975275109842 ], [ 15.850009987354177, 51.367975950785102 ], [ 15.850010141557668, 51.367973705528314 ], [ 15.850031663092398, 51.367974284674204 ], [ 15.850031508889959, 51.367976529931042 ], [ 15.850038682735379, 51.367976722978817 ], [ 15.85003883693747, 51.367974477721965 ], [ 15.850462093937548, 51.367985866763021 ], [ 15.850461939756091, 51.367988112020775 ], [ 15.850469113606291, 51.367988305042232 ], [ 15.850469267787396, 51.36798605978445 ], [ 15.850487202412365, 51.367986542336119 ], [ 15.850487048232134, 51.36798878759393 ], [ 15.85049780900788, 51.367989077123632 ], [ 15.850497963187584, 51.3679868318658 ], [ 15.85072035258225, 51.367992815258233 ], [ 15.850720198413386, 51.367995060516556 ], [ 15.850730959193012, 51.36799535002487 ], [ 15.850731113361352, 51.367993104766533 ], [ 15.850745461067099, 51.367993490776065 ], [ 15.85074530689946, 51.367995736034423 ], [ 15.850756067679507, 51.367996025540435 ], [ 15.850756221846622, 51.367993780282049 ], [ 15.850860242724552, 51.367996578789075 ], [ 15.850860088562511, 51.367998824047703 ], [ 15.850870849344465, 51.367999113543185 ], [ 15.850871003505985, 51.36799686828455 ], [ 15.851007306752953, 51.368000535141647 ], [ 15.851007152598083, 51.368002780400573 ], [ 15.851014326454333, 51.368002973388684 ], [ 15.851014480608855, 51.368000728129736 ], [ 15.85117947931653, 51.368005166734775 ], [ 15.851179325170049, 51.368007411994071 ], [ 15.851186499028211, 51.368007604971652 ], [ 15.85118665317434, 51.368005359712335 ], [ 15.851409042805965, 51.368011341799196 ], [ 15.851408888670681, 51.368013587058996 ], [ 15.851416062531388, 51.368013780022537 ], [ 15.851416216666323, 51.368011534762722 ], [ 15.851581215476541, 51.368015972802702 ], [ 15.85158106134965, 51.368018218062872 ], [ 15.851620517595041, 51.368019279298998 ], [ 15.851620671720006, 51.368017034038758 ], [ 15.851635019445499, 51.368017419939484 ], [ 15.851634865321234, 51.368019665199768 ], [ 15.851649213047745, 51.36802005109876 ], [ 15.85164936717131, 51.368017805838456 ], [ 15.851663714897443, 51.368018191735672 ], [ 15.851663560774574, 51.368020436996012 ], [ 15.851781929533072, 51.368023620581354 ], [ 15.851781775415956, 51.368025865841958 ], [ 15.85179612314643, 51.368026251723002 ], [ 15.851796277262848, 51.368024006462377 ], [ 15.851803451127855, 51.368024199402235 ], [ 15.851803297011784, 51.368026444662867 ], [ 15.851839166339767, 51.368027409355612 ], [ 15.851839320454085, 51.368025164094895 ], [ 15.851925406845153, 51.368027479312559 ], [ 15.851925252735034, 51.368029724573454 ], [ 15.851936013535248, 51.36803001397125 ], [ 15.851936167644842, 51.368027768710327 ], [ 15.851954102311391, 51.368028251037742 ], [ 15.851954256420095, 51.368026005776777 ], [ 15.85198653881956, 51.368026873959145 ], [ 15.851986384712429, 51.368029119220175 ], [ 15.852050949519342, 51.368030855558402 ], [ 15.852051103623323, 51.368028610297245 ], [ 15.852291428227336, 51.368035073021161 ], [ 15.852291274135071, 51.368037318282845 ], [ 15.852398882200916, 51.368040211880484 ], [ 15.852399036287933, 51.368037966618566 ], [ 15.852499470493983, 51.368040667220413 ], [ 15.852499316411862, 51.368042912482551 ], [ 15.852506490284668, 51.368043105379407 ], [ 15.852506644366439, 51.368040860117262 ], [ 15.85255686147587, 51.368042210382868 ], [ 15.852556707396548, 51.368044455645126 ], [ 15.852560294333262, 51.368044552091852 ], [ 15.852560448412408, 51.368042306829587 ], [ 15.8526070785892, 51.368043560626987 ], [ 15.852606924512328, 51.368045805889352 ], [ 15.852714532630696, 51.368048699197438 ], [ 15.852714686702324, 51.368046453934845 ], [ 15.852721860577169, 51.36804664681852 ], [ 15.852721706505895, 51.368048892081141 ], [ 15.852743228131954, 51.368049470729588 ], [ 15.852743382202183, 51.368047225466938 ], [ 15.852786425454354, 51.368048382751901 ], [ 15.852786271386227, 51.36805062801465 ], [ 15.852793445262218, 51.368050820893963 ], [ 15.852793599329997, 51.3680485756312 ], [ 15.852958598491696, 51.368053011733878 ], [ 15.852958444431959, 51.368055256996996 ], [ 15.85296920524884, 51.368055546299999 ], [ 15.852969359308048, 51.368053301036866 ], [ 15.852980120124585, 51.36805359033886 ], [ 15.852979966065901, 51.368055835602028 ], [ 15.853001487700558, 51.368056414203096 ], [ 15.853001641758192, 51.368054168939892 ], [ 15.853008815636217, 51.368054361806024 ], [ 15.853008661578933, 51.368056607069249 ], [ 15.853220291026872, 51.368062296423254 ], [ 15.853220445073843, 51.368060051159581 ], [ 15.853245553655782, 51.368060726142289 ], [ 15.853245399610037, 51.368062971406026 ], [ 15.853252573491122, 51.368063164257258 ], [ 15.853252727536514, 51.368060918993507 ], [ 15.853306531644549, 51.368062365363649 ], [ 15.853306377601781, 51.36806461062752 ], [ 15.853309964542651, 51.368064707051325 ], [ 15.853310118585245, 51.368062461787446 ], [ 15.853328053289017, 51.368062943904803 ], [ 15.853327899247295, 51.368065189168703 ], [ 15.853360181716914, 51.368066056973092 ], [ 15.853360027676748, 51.368068302237077 ], [ 15.853370788500838, 51.368068591503246 ], [ 15.853370942540479, 51.36806634623926 ], [ 15.853403225012245, 51.36806721403179 ], [ 15.853403379050294, 51.368064968767726 ], [ 15.853417726815341, 51.368065354450408 ], [ 15.853417572777992, 51.368067599714507 ], [ 15.853428333602512, 51.368067888975411 ], [ 15.853428487639334, 51.368065643711276 ], [ 15.853471530937101, 51.368066800744877 ], [ 15.853471376902375, 51.368069046009097 ], [ 15.853489311611497, 51.368069528101806 ], [ 15.85348946564535, 51.368067282837551 ], [ 15.853500226470535, 51.368067572091832 ], [ 15.85350007243721, 51.368069817356123 ], [ 15.853535941857542, 51.368070781530015 ], [ 15.853535787825944, 51.368073026794377 ], [ 15.853539374768266, 51.368073123211168 ], [ 15.853539528799688, 51.368070877946806 ], [ 15.853618441531859, 51.368072999088369 ], [ 15.853618287504284, 51.368075244352916 ], [ 15.853646983047042, 51.368076015664023 ], [ 15.853646829020844, 51.368078260928613 ], [ 15.853657589850235, 51.368078550168498 ], [ 15.853611381250943, 51.368752129499867 ], [ 15.849938308161732, 51.368653342588637 ] ] ] } },
{ "type": "Feature", "properties": { "feature_type": "farm", "confidence": 1.0, "classification_method": "heuristic" }, "geometry": { "type": "Polygon", "coordinates": [ [ [ 15.853152245973726, 51.368739787425362 ], [ 15.853199077480951, 51.368057227335051 ], [ 15.854289508133643, 51.368086536116543 ], [ 15.854242692789205, 51.3687690969182 ], [ 15.853152245973726, 51.368739787425362 ] ] ] } }
]
}
