{
"type": "FeatureCollection",
"name": "c2b30ca0-2056-45b5-80b5-da576c1c1e53",
"crs": { "type": "name", "properties": { "name": "urn:ogc:def:crs:OGC:1.3:CRS84" } },
"features": [
{ "type": "Feature", "properties": { "feature_type": "farm", "confidence": 1.0, "classification_method": "heuristic" }, "geometry": { "type": "Polygon", "coordinates": [ [ [ 311.0, 95.0 ], [ 311.0, 96.0 ], [ 312.0, 96.0 ], [ 312.0, 95.0 ], [ 311.0, 95.0 ] ] ] } },
{ "type": "Feature", "properties": { "feature_type": "farm", "confidence": 1.0, "classification_method": "heuristic" }, "geometry": { "type": "Polygon", "coordinates": [ [ [ 0.0, 0.0 ], [ 0.0, 293.0 ], [ 205.0, 293.0 ], [ 205.0, 292.0 ], [ 297.0, 292.0 ], [ 297.0, 293.0 ], [ 320.0, 293.0 ], [ 320.0, 67.0 ], [ 319.0, 67.0 ], [ 319.0, 68.0 ], [ 318.0, 68.0 ], [ 318.0, 70.0 ], [ 319.0, 70.0 ], [ 319.0, 73.0 ], [ 318.0, 73.0 ], [ 318.0, 76.0 ], [ 319.0, 76.0 ], [ 319.0, 77.0 ], [ 318.0, 77.0 ], [ 318.0, 78.0 ], [ 317.0, 78.0 ], [ 317.0, 80.0 ], [ 316.0, 80.0 ], [ 316.0, 81.0 ], [ 318.0, 81.0 ], [ 318.0, 82.0 ], [ 316.0, 82.0 ], [ 316.0, 83.0 ], [ 315.0, 83.0 ], [ 315.0, 85.0 ], [ 316.0, 85.0 ], [ 316.0, 87.0 ], [ 315.0, 87.0 ], [ 315.0, 88.0 ], [ 314.0, 88.0 ], [ 314.0, 91.0 ], [ 315.0, 91.0 ], [ 315.0, 90.0 ], [ 316.0, 90.0 ], [ 316.0, 91.0 ], [ 318.0, 91.0 ], [ 318.0, 92.0 ], [ 316.0, 92.0 ], [ 316.0, 93.0 ], [ 315.0, 93.0 ], [ 315.0, 92.0 ], [ 314.0, 92.0 ], [ 314.0, 98.0 ], [ 310.0, 98.0 ], [ 310.0, 95.0 ], [ 311.0, 95.0 ], [ 311.0, 94.0 ], [ 312.0, 94.0 ], [ 312.0, 93.0 ], [ 311.0, 93.0 ], [ 311.0, 91.0 ], [ 312.0, 91.0 ], [ 312.0, 89.0 ], [ 313.0, 89.0 ], [ 313.0, 87.0 ], [ 312.0, 87.0 ], [ 312.0, 86.0 ], [ 313.0, 86.0 ], [ 313.0, 82.0 ], [ 314.0, 82.0 ], [ 314.0, 79.0 ], [ 315.0, 79.0 ], [ 315.0, 70.0 ], [ 316.0, 70.0 ], [ 316.0, 67.0 ], [ 315.0, 67.0 ], [ 315.0, 65.0 ], [ 316.0, 65.0 ], [ 316.0, 62.0 ], [ 315.0, 62.0 ], [ 315.0, 60.0 ], [ 314.0, 60.0 ], [ 314.0, 58.0 ], [ 315.0, 58.0 ], [ 315.0, 56.0 ], [ 316.0, 56.0 ], [ 316.0, 53.0 ], [ 317.0, 53.0 ], [ 317.0, 50.0 ], [ 320.0, 50.0 ], [ 320.0, 0.0 ], [ 259.0, 0.0 ], [ 259.0, 1.0 ], [ 261.0, 1.0 ], [ 261.0, 2.0 ], [ 262.0, 2.0 ], [ 262.0, 3.0 ], [ 263.0, 3.0 ], [ 263.0, 5.0 ], [ 265.0, 5.0 ], [ 265.0, 7.0 ], [ 264.0, 7.0 ], [ 264.0, 10.0 ], [ 262.0, 10.0 ], [ 262.0, 8.0 ], [ 261.0, 8.0 ], [ 261.0, 11.0 ], [ 264.0, 11.0 ], [ 264.0, 13.0 ], [ 263.0, 13.0 ], [ 263.0, 12.0 ], [ 261.0, 12.0 ], [ 261.0, 15.0 ], [ 260.0, 15.0 ], [ 260.0, 11.0 ], [ 259.0, 11.0 ], [ 259.0, 13.0 ], [ 257.0, 13.0 ], [ 257.0, 14.0 ], [ 256.0, 14.0 ], [ 256.0, 15.0 ], [ 257.0, 15.0 ], [ 257.0, 16.0 ], [ 259.0, 16.0 ], [ 259.0, 18.0 ], [ 257.0, 18.0 ], [ 257.0, 19.0 ], [ 256.0, 19.0 ], [ 256.0, 20.0 ], [ 255.0, 20.0 ], [ 255.0, 9.0 ], [ 254.0, 9.0 ], [ 254.0, 10.0 ], [ 253.0, 10.0 ], [ 253.0, 8.0 ], [ 252.0, 8.0 ], [ 252.0, 7.0 ], [ 250.0, 7.0 ], [ 250.0, 0.0 ], [ 0.0, 0.0 ] ], [ [ 270.0, 2.0 ], [ 274.0, 2.0 ], [ 274.0, 3.0 ], [ 277.0, 3.0 ], [ 277.0, 5.0 ], [ 278.0, 5.0 ], [ 278.0, 7.0 ], [ 279.0, 7.0 ], [ 279.0, 8.0 ], [ 280.0, 8.0 ], [ 280.0, 10.0 ], [ 282.0, 10.0 ], [ 282.0, 12.0 ], [ 283.0, 12.0 ], [ 283.0, 14.0 ], [ 285.0, 14.0 ], [ 285.0, 17.0 ], [ 283.0, 17.0 ], [ 283.0, 16.0 ], [ 282.0, 16.0 ], [ 282.0, 15.0 ], [ 280.0, 15.0 ], [ 280.0, 14.0 ], [ 281.0, 14.0 ], [ 281.0, 12.0 ], [ 279.0, 12.0 ], [ 279.0, 13.0 ], [ 277.0, 13.0 ], [ 277.0, 12.0 ], [ 276.0, 12.0 ], [ 276.0, 13.0 ], [ 275.0, 13.0 ], [ 275.0, 9.0 ], [ 276.0, 9.0 ], [ 276.0, 8.0 ], [ 275.0, 8.0 ], [ 275.0, 7.0 ], [ 274.0, 7.0 ], [ 274.0, 8.0 ], [ 272.0, 8.0 ], [ 272.0, 7.0 ], [ 271.0, 7.0 ], [ 271.0, 8.0 ], [ 270.0, 8.0 ], [ 270.0, 7.0 ], [ 269.0, 7.0 ], [ 269.0, 8.0 ], [ 268.0, 8.0 ], [ 268.0, 6.0 ], [ 269.0, 6.0 ], [ 269.0, 5.0 ], [ 270.0, 5.0 ], [ 270.0, 2.0 ] ], [ [ 270.0, 9.0 ], [ 271.0, 9.0 ], [ 271.0, 10.0 ], [ 272.0, 10.0 ], [ 272.0, 11.0 ], [ 274.0, 11.0 ], [ 274.0, 13.0 ], [ 272.0, 13.0 ], [ 272.0, 15.0 ], [ 275.0, 15.0 ], [ 275.0, 14.0 ], [ 276.0, 14.0 ], [ 276.0, 15.0 ], [ 278.0, 15.0 ], [ 278.0, 14.0 ], [ 279.0, 14.0 ], [ 279.0, 18.0 ], [ 278.0, 18.0 ], [ 278.0, 21.0 ], [ 279.0, 21.0 ], [ 279.0, 22.0 ], [ 280.0, 22.0 ], [ 280.0, 23.0 ], [ 279.0, 23.0 ], [ 279.0, 25.0 ], [ 276.0, 25.0 ], [ 276.0, 27.0 ], [ 277.0, 27.0 ], [ 277.0, 26.0 ], [ 279.0, 26.0 ], [ 279.0, 27.0 ], [ 278.0, 27.0 ], [ 278.0, 28.0 ], [ 277.0, 28.0 ], [ 277.0, 29.0 ], [ 276.0, 29.0 ], [ 276.0, 30.0 ], [ 275.0, 30.0 ], [ 275.0, 24.0 ], [ 274.0, 24.0 ], [ 274.0, 25.0 ], [ 270.0, 25.0 ], [ 270.0, 9.0 ] ], [ [ 250.0, 11.0 ], [ 251.0, 11.0 ], [ 251.0, 12.0 ], [ 254.0, 12.0 ], [ 254.0, 18.0 ], [ 251.0, 18.0 ], [ 251.0, 22.0 ], [ 252.0, 22.0 ], [ 252.0, 21.0 ], [ 254.0, 21.0 ], [ 254.0, 23.0 ], [ 253.0, 23.0 ], [ 253.0, 24.0 ], [ 254.0, 24.0 ], [ 254.0, 25.0 ], [ 255.0, 25.0 ], [ 255.0, 21.0 ], [ 256.0, 21.0 ], [ 256.0, 25.0 ], [ 257.0, 25.0 ], [ 257.0, 26.0 ], [ 258.0, 26.0 ], [ 258.0, 28.0 ], [ 259.0, 28.0 ], [ 259.0, 30.0 ], [ 260.0, 30.0 ], [ 260.0, 28.0 ], [ 261.0, 28.0 ], [ 261.0, 31.0 ], [ 263.0, 31.0 ], [ 263.0, 32.0 ], [ 264.0, 32.0 ], [ 264.0, 33.0 ], [ 265.0, 33.0 ], [ 265.0, 31.0 ], [ 266.0, 31.0 ], [ 266.0, 32.0 ], [ 268.0, 32.0 ], [ 268.0, 35.0 ], [ 269.0, 35.0 ], [ 269.0, 37.0 ], [ 268.0, 37.0 ], [ 268.0, 36.0 ], [ 267.0, 36.0 ], [ 267.0, 35.0 ], [ 265.0, 35.0 ], [ 265.0, 34.0 ], [ 262.0, 34.0 ], [ 262.0, 33.0 ], [ 259.0, 33.0 ], [ 259.0, 32.0 ], [ 258.0, 32.0 ], [ 258.0, 30.0 ], [ 256.0, 30.0 ], [ 256.0, 29.0 ], [ 255.0, 29.0 ], [ 255.0, 28.0 ], [ 252.0, 28.0 ], [ 252.0, 27.0 ], [ 251.0, 27.0 ], [ 251.0, 28.0 ], [ 250.0, 28.0 ], [ 250.0, 27.0 ], [ 247.0, 27.0 ], [ 247.0, 26.0 ], [ 248.0, 26.0 ], [ 248.0, 25.0 ], [ 246.0, 25.0 ], [ 246.0, 24.0 ], [ 245.0, 24.0 ], [ 245.0, 20.0 ], [ 246.0, 20.0 ], [ 246.0, 21.0 ], [ 248.0, 21.0 ], [ 248.0, 22.0 ], [ 249.0, 22.0 ], [ 249.0, 23.0 ], [ 248.0, 23.0 ], [ 248.0, 24.0 ], [ 249.0, 24.0 ], [ 249.0, 25.0 ], [ 250.0, 25.0 ], [ 250.0, 11.0 ] ], [ [ 38.0, 21.0 ], [ 39.0, 21.0 ], [ 39.0, 22.0 ], [ 38.0, 22.0 ], [ 38.0, 21.0 ] ], [ [ 39.0, 22.0 ], [ 40.0, 22.0 ], [ 40.0, 24.0 ], [ 39.0, 24.0 ], [ 39.0, 22.0 ] ], [ [ 38.0, 24.0 ], [ 39.0, 24.0 ], [ 39.0, 25.0 ], [ 38.0, 25.0 ], [ 38.0, 24.0 ] ], [ [ 40.0, 24.0 ], [ 41.0, 24.0 ], [ 41.0, 25.0 ], [ 43.0, 25.0 ], [ 43.0, 26.0 ], [ 44.0, 26.0 ], [ 44.0, 27.0 ], [ 46.0, 27.0 ], [ 46.0, 28.0 ], [ 47.0, 28.0 ], [ 47.0, 29.0 ], [ 48.0, 29.0 ], [ 48.0, 30.0 ], [ 47.0, 30.0 ], [ 47.0, 31.0 ], [ 48.0, 31.0 ], [ 48.0, 33.0 ], [ 47.0, 33.0 ], [ 47.0, 34.0 ], [ 48.0, 34.0 ], [ 48.0, 35.0 ], [ 45.0, 35.0 ], [ 45.0, 33.0 ], [ 44.0, 33.0 ], [ 44.0, 32.0 ], [ 43.0, 32.0 ], [ 43.0, 31.0 ], [ 46.0, 31.0 ], [ 46.0, 30.0 ], [ 40.0, 30.0 ], [ 40.0, 29.0 ], [ 39.0, 29.0 ], [ 39.0, 28.0 ], [ 38.0, 28.0 ], [ 38.0, 26.0 ], [ 40.0, 26.0 ], [ 40.0, 24.0 ] ], [ [ 283.0, 26.0 ], [ 286.0, 26.0 ], [ 286.0, 30.0 ], [ 287.0, 30.0 ], [ 287.0, 31.0 ], [ 288.0, 31.0 ], [ 288.0, 32.0 ], [ 289.0, 32.0 ], [ 289.0, 33.0 ], [ 290.0, 33.0 ], [ 290.0, 34.0 ], [ 292.0, 34.0 ], [ 292.0, 35.0 ], [ 291.0, 35.0 ], [ 291.0, 36.0 ], [ 292.0, 36.0 ], [ 292.0, 38.0 ], [ 291.0, 38.0 ], [ 291.0, 37.0 ], [ 290.0, 37.0 ], [ 290.0, 35.0 ], [ 288.0, 35.0 ], [ 288.0, 34.0 ], [ 287.0, 34.0 ], [ 287.0, 33.0 ], [ 286.0, 33.0 ], [ 286.0, 32.0 ], [ 285.0, 32.0 ], [ 285.0, 30.0 ], [ 283.0, 30.0 ], [ 283.0, 26.0 ] ], [ [ 38.0, 29.0 ], [ 39.0, 29.0 ], [ 39.0, 30.0 ], [ 38.0, 30.0 ], [ 38.0, 29.0 ] ] ] } }
]
}
