{
"type": "FeatureCollection",
"name": "ea61e494-3cf5-4ffc-b1c2-2fe658ba5a46",
"crs": { "type": "name", "properties": { "name": "urn:ogc:def:crs:OGC:1.3:CRS84" } },
"features": [
{ "type": "Feature", "properties": { "feature_type": "building", "confidence": 0.99, "classification_method": "heuristic" }, "geometry": { "type": "Polygon", "coordinates": [ [ [ 287.0, 227.0 ], [ 287.0, 228.0 ], [ 279.0, 228.0 ], [ 279.0, 229.0 ], [ 275.0, 229.0 ], [ 275.0, 230.0 ], [ 273.0, 230.0 ], [ 273.0, 231.0 ], [ 271.0, 231.0 ], [ 271.0, 232.0 ], [ 269.0, 232.0 ], [ 269.0, 233.0 ], [ 268.0, 233.0 ], [ 268.0, 234.0 ], [ 267.0, 234.0 ], [ 267.0, 235.0 ], [ 264.0, 235.0 ], [ 264.0, 236.0 ], [ 259.0, 236.0 ], [ 259.0, 242.0 ], [ 260.0, 242.0 ], [ 260.0, 244.0 ], [ 261.0, 244.0 ], [ 261.0, 247.0 ], [ 260.0, 247.0 ], [ 260.0, 255.0 ], [ 259.0, 255.0 ], [ 259.0, 265.0 ], [ 287.0, 265.0 ], [ 287.0, 264.0 ], [ 294.0, 264.0 ], [ 294.0, 265.0 ], [ 298.0, 265.0 ], [ 298.0, 263.0 ], [ 299.0, 263.0 ], [ 299.0, 261.0 ], [ 298.0, 261.0 ], [ 298.0, 258.0 ], [ 297.0, 258.0 ], [ 297.0, 256.0 ], [ 296.0, 256.0 ], [ 296.0, 251.0 ], [ 295.0, 251.0 ], [ 295.0, 248.0 ], [ 294.0, 248.0 ], [ 294.0, 244.0 ], [ 293.0, 244.0 ], [ 293.0, 241.0 ], [ 292.0, 241.0 ], [ 292.0, 238.0 ], [ 293.0, 238.0 ], [ 293.0, 234.0 ], [ 294.0, 234.0 ], [ 294.0, 227.0 ], [ 287.0, 227.0 ] ] ] } },
{ "type": "Feature", "properties": { "feature_type": "building", "confidence": 0.99, "classification_method": "heuristic" }, "geometry": { "type": "Polygon", "coordinates": [ [ [ 179.0, 110.0 ], [ 179.0, 111.0 ], [ 173.0, 111.0 ], [ 173.0, 113.0 ], [ 172.0, 113.0 ], [ 172.0, 118.0 ], [ 173.0, 118.0 ], [ 173.0, 122.0 ], [ 174.0, 122.0 ], [ 174.0, 130.0 ], [ 175.0, 130.0 ], [ 175.0, 134.0 ], [ 190.0, 134.0 ], [ 190.0, 133.0 ], [ 192.0, 133.0 ], [ 192.0, 132.0 ], [ 193.0, 132.0 ], [ 193.0, 118.0 ], [ 192.0, 118.0 ], [ 192.0, 110.0 ], [ 179.0, 110.0 ] ] ] } },
{ "type": "Feature", "properties": { "feature_type": "building", "confidence": 0.98, "classification_method": "heuristic" }, "geometry": { "type": "Polygon", "coordinates": [ [ [ 280.0, 27.0 ], [ 280.0, 28.0 ], [ 276.0, 28.0 ], [ 276.0, 29.0 ], [ 274.0, 29.0 ], [ 274.0, 30.0 ], [ 273.0, 30.0 ], [ 273.0, 43.0 ], [ 274.0, 43.0 ], [ 274.0, 49.0 ], [ 275.0, 49.0 ], [ 275.0, 52.0 ], [ 279.0, 52.0 ], [ 279.0, 53.0 ], [ 280.0, 53.0 ], [ 280.0, 55.0 ], [ 281.0, 55.0 ], [ 281.0, 56.0 ], [ 280.0, 56.0 ], [ 280.0, 57.0 ], [ 283.0, 57.0 ], [ 283.0, 59.0 ], [ 285.0, 59.0 ], [ 285.0, 60.0 ], [ 286.0, 60.0 ], [ 286.0, 59.0 ], [ 287.0, 59.0 ], [ 287.0, 58.0 ], [ 288.0, 58.0 ], [ 288.0, 57.0 ], [ 295.0, 57.0 ], [ 295.0, 54.0 ], [ 297.0, 54.0 ], [ 297.0, 53.0 ], [ 298.0, 53.0 ], [ 298.0, 52.0 ], [ 299.0, 52.0 ], [ 299.0, 30.0 ], [ 298.0, 30.0 ], [ 298.0, 28.0 ], [ 297.0, 28.0 ], [ 297.0, 27.0 ], [ 280.0, 27.0 ] ] ] } },
{ "type": "Feature", "properties": { "feature_type": "water", "confidence": 0.98, "classification_method": "heuristic" }, "geometry": { "type": "Polygon", "coordinates": [ [ [ 101.0, 132.0 ], [ 101.0, 138.0 ], [ 100.0, 138.0 ], [ 100.0, 156.0 ], [ 101.0, 156.0 ], [ 101.0, 158.0 ], [ 102.0, 158.0 ], [ 102.0, 159.0 ], [ 104.0, 159.0 ], [ 104.0, 160.0 ], [ 106.0, 160.0 ], [ 106.0, 161.0 ], [ 105.0, 161.0 ], [ 105.0, 162.0 ], [ 106.0, 162.0 ], [ 106.0, 163.0 ], [ 107.0, 163.0 ], [ 107.0, 166.0 ], [ 108.0, 166.0 ], [ 108.0, 173.0 ], [ 107.0, 173.0 ], [ 107.0, 185.0 ], [ 105.0, 185.0 ], [ 105.0, 187.0 ], [ 104.0, 187.0 ], [ 104.0, 199.0 ], [ 105.0, 199.0 ], [ 105.0, 221.0 ], [ 106.0, 221.0 ], [ 106.0, 222.0 ], [ 128.0, 222.0 ], [ 128.0, 221.0 ], [ 158.0, 221.0 ], [ 158.0, 220.0 ], [ 168.0, 220.0 ], [ 168.0, 219.0 ], [ 169.0, 219.0 ], [ 169.0, 216.0 ], [ 168.0, 216.0 ], [ 168.0, 214.0 ], [ 167.0, 214.0 ], [ 167.0, 211.0 ], [ 166.0, 211.0 ], [ 166.0, 209.0 ], [ 165.0, 209.0 ], [ 165.0, 207.0 ], [ 164.0, 207.0 ], [ 164.0, 206.0 ], [ 165.0, 206.0 ], [ 165.0, 205.0 ], [ 193.0, 205.0 ], [ 193.0, 203.0 ], [ 194.0, 203.0 ], [ 194.0, 196.0 ], [ 193.0, 196.0 ], [ 193.0, 185.0 ], [ 194.0, 185.0 ], [ 194.0, 182.0 ], [ 195.0, 182.0 ], [ 195.0, 180.0 ], [ 196.0, 180.0 ], [ 196.0, 173.0 ], [ 197.0, 173.0 ], [ 197.0, 169.0 ], [ 198.0, 169.0 ], [ 198.0, 138.0 ], [ 197.0, 138.0 ], [ 197.0, 137.0 ], [ 196.0, 137.0 ], [ 196.0, 136.0 ], [ 182.0, 136.0 ], [ 182.0, 137.0 ], [ 160.0, 137.0 ], [ 160.0, 136.0 ], [ 141.0, 136.0 ], [ 141.0, 135.0 ], [ 138.0, 135.0 ], [ 138.0, 134.0 ], [ 129.0, 134.0 ], [ 129.0, 133.0 ], [ 123.0, 133.0 ], [ 123.0, 132.0 ], [ 122.0, 132.0 ], [ 122.0, 133.0 ], [ 121.0, 133.0 ], [ 121.0, 132.0 ], [ 101.0, 132.0 ] ] ] } },
{ "type": "Feature", "properties": { "feature_type": "water", "confidence": 0.98, "classification_method": "heuristic" }, "geometry": { "type": "Polygon", "coordinates": [ [ [ 384.0, 6.0 ], [ 384.0, 7.0 ], [ 383.0, 7.0 ], [ 383.0, 8.0 ], [ 381.0, 8.0 ], [ 381.0, 9.0 ], [ 379.0, 9.0 ], [ 379.0, 10.0 ], [ 368.0, 10.0 ], [ 368.0, 11.0 ], [ 362.0, 11.0 ], [ 362.0, 12.0 ], [ 361.0, 12.0 ], [ 361.0, 13.0 ], [ 360.0, 13.0 ], [ 360.0, 14.0 ], [ 361.0, 14.0 ], [ 361.0, 17.0 ], [ 362.0, 17.0 ], [ 362.0, 19.0 ], [ 363.0, 19.0 ], [ 363.0, 23.0 ], [ 362.0, 23.0 ], [ 362.0, 24.0 ], [ 361.0, 24.0 ], [ 361.0, 25.0 ], [ 360.0, 25.0 ], [ 360.0, 27.0 ], [ 358.0, 27.0 ], [ 358.0, 29.0 ], [ 357.0, 29.0 ], [ 357.0, 34.0 ], [ 356.0, 34.0 ], [ 356.0, 53.0 ], [ 355.0, 53.0 ], [ 355.0, 63.0 ], [ 356.0, 63.0 ], [ 356.0, 64.0 ], [ 357.0, 64.0 ], [ 357.0, 65.0 ], [ 360.0, 65.0 ], [ 360.0, 66.0 ], [ 363.0, 66.0 ], [ 363.0, 67.0 ], [ 365.0, 67.0 ], [ 365.0, 68.0 ], [ 367.0, 68.0 ], [ 367.0, 69.0 ], [ 369.0, 69.0 ], [ 369.0, 70.0 ], [ 370.0, 70.0 ], [ 370.0, 71.0 ], [ 371.0, 71.0 ], [ 371.0, 72.0 ], [ 372.0, 72.0 ], [ 372.0, 73.0 ], [ 374.0, 73.0 ], [ 374.0, 74.0 ], [ 377.0, 74.0 ], [ 377.0, 76.0 ], [ 378.0, 76.0 ], [ 378.0, 80.0 ], [ 379.0, 80.0 ], [ 379.0, 84.0 ], [ 380.0, 84.0 ], [ 380.0, 86.0 ], [ 381.0, 86.0 ], [ 381.0, 87.0 ], [ 383.0, 87.0 ], [ 383.0, 88.0 ], [ 384.0, 88.0 ], [ 384.0, 87.0 ], [ 386.0, 87.0 ], [ 386.0, 6.0 ], [ 384.0, 6.0 ] ] ] } },
{ "type": "Feature", "properties": { "feature_type": "farm", "confidence": 0.98, "classification_method": "heuristic" }, "geometry": { "type": "Polygon", "coordinates": [ [ [ 136.0, 10.0 ], [ 136.0, 19.0 ], [ 135.0, 19.0 ], [ 135.0, 26.0 ], [ 136.0, 26.0 ], [ 136.0, 27.0 ], [ 142.0, 27.0 ], [ 142.0, 26.0 ], [ 145.0, 26.0 ], [ 145.0, 25.0 ], [ 146.0, 25.0 ], [ 146.0, 24.0 ], [ 147.0, 24.0 ], [ 147.0, 10.0 ], [ 136.0, 10.0 ] ] ] } },
{ "type": "Feature", "properties": { "feature_type": "water", "confidence": 0.98, "classification_method": "heuristic" }, "geometry": { "type": "Polygon", "coordinates": [ [ [ 109.0, 223.0 ], [ 109.0, 224.0 ], [ 108.0, 224.0 ], [ 108.0, 225.0 ], [ 107.0, 225.0 ], [ 107.0, 226.0 ], [ 108.0, 226.0 ], [ 108.0, 236.0 ], [ 107.0, 236.0 ], [ 107.0, 237.0 ], [ 108.0, 237.0 ], [ 108.0, 266.0 ], [ 110.0, 266.0 ], [ 110.0, 267.0 ], [ 123.0, 267.0 ], [ 123.0, 266.0 ], [ 124.0, 266.0 ], [ 124.0, 262.0 ], [ 125.0, 262.0 ], [ 125.0, 233.0 ], [ 124.0, 233.0 ], [ 124.0, 223.0 ], [ 109.0, 223.0 ] ] ] } },
{ "type": "Feature", "properties": { "feature_type": "water", "confidence": 0.98, "classification_method": "heuristic" }, "geometry": { "type": "Polygon", "coordinates": [ [ [ 298.0, 69.0 ], [ 298.0, 74.0 ], [ 297.0, 74.0 ], [ 297.0, 80.0 ], [ 296.0, 80.0 ], [ 296.0, 83.0 ], [ 295.0, 83.0 ], [ 295.0, 89.0 ], [ 296.0, 89.0 ], [ 296.0, 104.0 ], [ 297.0, 104.0 ], [ 297.0, 107.0 ], [ 302.0, 107.0 ], [ 302.0, 106.0 ], [ 305.0, 106.0 ], [ 305.0, 105.0 ], [ 307.0, 105.0 ], [ 307.0, 104.0 ], [ 308.0, 104.0 ], [ 308.0, 103.0 ], [ 309.0, 103.0 ], [ 309.0, 102.0 ], [ 311.0, 102.0 ], [ 311.0, 101.0 ], [ 313.0, 101.0 ], [ 313.0, 96.0 ], [ 312.0, 96.0 ], [ 312.0, 92.0 ], [ 311.0, 92.0 ], [ 311.0, 88.0 ], [ 312.0, 88.0 ], [ 312.0, 79.0 ], [ 311.0, 79.0 ], [ 311.0, 77.0 ], [ 310.0, 77.0 ], [ 310.0, 73.0 ], [ 309.0, 73.0 ], [ 309.0, 72.0 ], [ 308.0, 72.0 ], [ 308.0, 71.0 ], [ 306.0, 71.0 ], [ 306.0, 70.0 ], [ 302.0, 70.0 ], [ 302.0, 69.0 ], [ 298.0, 69.0 ] ] ] } },
{ "type": "Feature", "properties": { "feature_type": "water", "confidence": 0.98, "classification_method": "heuristic" }, "geometry": { "type": "Polygon", "coordinates": [ [ [ 0.0, 122.0 ], [ 0.0, 166.0 ], [ 17.0, 166.0 ], [ 17.0, 156.0 ], [ 18.0, 156.0 ], [ 18.0, 155.0 ], [ 19.0, 155.0 ], [ 19.0, 154.0 ], [ 25.0, 154.0 ], [ 25.0, 152.0 ], [ 26.0, 152.0 ], [ 26.0, 146.0 ], [ 27.0, 146.0 ], [ 27.0, 124.0 ], [ 12.0, 124.0 ], [ 12.0, 123.0 ], [ 6.0, 123.0 ], [ 6.0, 122.0 ], [ 0.0, 122.0 ] ] ] } },
{ "type": "Feature", "properties": { "feature_type": "water", "confidence": 0.98, "classification_method": "heuristic" }, "geometry": { "type": "Polygon", "coordinates": [ [ [ 217.0, 0.0 ], [ 217.0, 1.0 ], [ 218.0, 1.0 ], [ 218.0, 2.0 ], [ 219.0, 2.0 ], [ 219.0, 3.0 ], [ 220.0, 3.0 ], [ 220.0, 0.0 ], [ 217.0, 0.0 ] ] ] } },
{ "type": "Feature", "properties": { "feature_type": "water", "confidence": 0.98, "classification_method": "heuristic" }, "geometry": { "type": "Polygon", "coordinates": [ [ [ 259.0, 0.0 ], [ 259.0, 1.0 ], [ 261.0, 1.0 ], [ 261.0, 3.0 ], [ 262.0, 3.0 ], [ 262.0, 1.0 ], [ 263.0, 1.0 ], [ 263.0, 0.0 ], [ 259.0, 0.0 ] ] ] } },
{ "type": "Feature", "properties": { "feature_type": "water", "confidence": 0.98, "classification_method": "heuristic" }, "geometry": { "type": "Polygon", "coordinates": [ [ [ 265.0, 0.0 ], [ 265.0, 1.0 ], [ 267.0, 1.0 ], [ 267.0, 3.0 ], [ 268.0, 3.0 ], [ 268.0, 1.0 ], [ 269.0, 1.0 ], [ 269.0, 0.0 ], [ 265.0, 0.0 ] ] ] } },
{ "type": "Feature", "properties": { "feature_type": "water", "confidence": 0.98, "classification_method": "heuristic" }, "geometry": { "type": "Polygon", "coordinates": [ [ [ 382.0, 1.0 ], [ 382.0, 3.0 ], [ 383.0, 3.0 ], [ 383.0, 1.0 ], [ 382.0, 1.0 ] ] ] } },
{ "type": "Feature", "properties": { "feature_type": "water", "confidence": 0.98, "classification_method": "heuristic" }, "geometry": { "type": "Polygon", "coordinates": [ [ [ 370.0, 0.0 ], [ 370.0, 6.0 ], [ 369.0, 6.0 ], [ 369.0, 7.0 ], [ 381.0, 7.0 ], [ 381.0, 6.0 ], [ 380.0, 6.0 ], [ 380.0, 3.0 ], [ 378.0, 3.0 ], [ 378.0, 6.0 ], [ 377.0, 6.0 ], [ 377.0, 5.0 ], [ 376.0, 5.0 ], [ 376.0, 6.0 ], [ 374.0, 6.0 ], [ 374.0, 3.0 ], [ 371.0, 3.0 ], [ 371.0, 0.0 ], [ 370.0, 0.0 ] ] ] } },
{ "type": "Feature", "properties": { "feature_type": "water", "confidence": 0.98, "classification_method": "heuristic" }, "geometry": { "type": "Polygon", "coordinates": [ [ [ 336.0, 3.0 ], [ 336.0, 6.0 ], [ 335.0, 6.0 ], [ 335.0, 5.0 ], [ 333.0, 5.0 ], [ 333.0, 6.0 ], [ 332.0, 6.0 ], [ 332.0, 4.0 ], [ 330.0, 4.0 ], [ 330.0, 6.0 ], [ 329.0, 6.0 ], [ 329.0, 5.0 ], [ 327.0, 5.0 ], [ 327.0, 6.0 ], [ 326.0, 6.0 ], [ 326.0, 5.0 ], [ 325.0, 5.0 ], [ 325.0, 4.0 ], [ 324.0, 4.0 ], [ 324.0, 6.0 ], [ 320.0, 6.0 ], [ 320.0, 5.0 ], [ 319.0, 5.0 ], [ 319.0, 4.0 ], [ 318.0, 4.0 ], [ 318.0, 7.0 ], [ 321.0, 7.0 ], [ 321.0, 8.0 ], [ 323.0, 8.0 ], [ 323.0, 7.0 ], [ 324.0, 7.0 ], [ 324.0, 8.0 ], [ 326.0, 8.0 ], [ 326.0, 7.0 ], [ 327.0, 7.0 ], [ 327.0, 8.0 ], [ 329.0, 8.0 ], [ 329.0, 7.0 ], [ 330.0, 7.0 ], [ 330.0, 8.0 ], [ 332.0, 8.0 ], [ 332.0, 7.0 ], [ 333.0, 7.0 ], [ 333.0, 8.0 ], [ 335.0, 8.0 ], [ 335.0, 7.0 ], [ 336.0, 7.0 ], [ 336.0, 8.0 ], [ 338.0, 8.0 ], [ 338.0, 7.0 ], [ 339.0, 7.0 ], [ 339.0, 8.0 ], [ 341.0, 8.0 ], [ 341.0, 7.0 ], [ 346.0, 7.0 ], [ 346.0, 8.0 ], [ 347.0, 8.0 ], [ 347.0, 7.0 ], [ 353.0, 7.0 ], [ 353.0, 3.0 ], [ 352.0, 3.0 ], [ 352.0, 6.0 ], [ 350.0, 6.0 ], [ 350.0, 3.0 ], [ 348.0, 3.0 ], [ 348.0, 4.0 ], [ 347.0, 4.0 ], [ 347.0, 3.0 ], [ 346.0, 3.0 ], [ 346.0, 5.0 ], [ 345.0, 5.0 ], [ 345.0, 6.0 ], [ 344.0, 6.0 ], [ 344.0, 4.0 ], [ 343.0, 4.0 ], [ 343.0, 3.0 ], [ 342.0, 3.0 ], [ 342.0, 6.0 ], [ 341.0, 6.0 ], [ 341.0, 5.0 ], [ 340.0, 5.0 ], [ 340.0, 6.0 ], [ 338.0, 6.0 ], [ 338.0, 4.0 ], [ 337.0, 4.0 ], [ 337.0, 3.0 ], [ 336.0, 3.0 ] ] ] } },
{ "type": "Feature", "properties": { "feature_type": "building", "confidence": 0.97, "classification_method": "heuristic" }, "geometry": { "type": "Polygon", "coordinates": [ [ [ 254.0, 243.0 ], [ 254.0, 244.0 ], [ 228.0, 244.0 ], [ 228.0, 245.0 ], [ 211.0, 245.0 ], [ 211.0, 246.0 ], [ 210.0, 246.0 ], [ 210.0, 249.0 ], [ 209.0, 249.0 ], [ 209.0, 251.0 ], [ 208.0, 251.0 ], [ 208.0, 252.0 ], [ 207.0, 252.0 ], [ 207.0, 255.0 ], [ 206.0, 255.0 ], [ 206.0, 258.0 ], [ 205.0, 258.0 ], [ 205.0, 262.0 ], [ 204.0, 262.0 ], [ 204.0, 266.0 ], [ 206.0, 266.0 ], [ 206.0, 267.0 ], [ 253.0, 267.0 ], [ 253.0, 266.0 ], [ 258.0, 266.0 ], [ 258.0, 256.0 ], [ 259.0, 256.0 ], [ 259.0, 244.0 ], [ 258.0, 244.0 ], [ 258.0, 243.0 ], [ 254.0, 243.0 ] ] ] } },
{ "type": "Feature", "properties": { "feature_type": "farm", "confidence": 0.97, "classification_method": "heuristic" }, "geometry": { "type": "Polygon", "coordinates": [ [ [ 372.0, 202.0 ], [ 372.0, 203.0 ], [ 370.0, 203.0 ], [ 370.0, 204.0 ], [ 369.0, 204.0 ], [ 369.0, 205.0 ], [ 368.0, 205.0 ], [ 368.0, 213.0 ], [ 367.0, 213.0 ], [ 367.0, 225.0 ], [ 369.0, 225.0 ], [ 369.0, 226.0 ], [ 377.0, 226.0 ], [ 377.0, 227.0 ], [ 386.0, 227.0 ], [ 386.0, 204.0 ], [ 385.0, 204.0 ], [ 385.0, 203.0 ], [ 376.0, 203.0 ], [ 376.0, 202.0 ], [ 372.0, 202.0 ] ] ] } },
{ "type": "Feature", "properties": { "feature_type": "farm", "confidence": 0.97, "classification_method": "heuristic" }, "geometry": { "type": "Polygon", "coordinates": [ [ [ 268.0, 10.0 ], [ 268.0, 11.0 ], [ 267.0, 11.0 ], [ 267.0, 27.0 ], [ 268.0, 27.0 ], [ 268.0, 30.0 ], [ 269.0, 30.0 ], [ 269.0, 31.0 ], [ 272.0, 31.0 ], [ 272.0, 30.0 ], [ 273.0, 30.0 ], [ 273.0, 29.0 ], [ 275.0, 29.0 ], [ 275.0, 28.0 ], [ 279.0, 28.0 ], [ 279.0, 27.0 ], [ 294.0, 27.0 ], [ 294.0, 17.0 ], [ 293.0, 17.0 ], [ 293.0, 10.0 ], [ 268.0, 10.0 ] ] ] } },
{ "type": "Feature", "properties": { "feature_type": "building", "confidence": 0.96, "classification_method": "heuristic" }, "geometry": { "type": "Polygon", "coordinates": [ [ [ 199.0, 163.0 ], [ 199.0, 168.0 ], [ 198.0, 168.0 ], [ 198.0, 174.0 ], [ 211.0, 174.0 ], [ 211.0, 175.0 ], [ 216.0, 175.0 ], [ 216.0, 164.0 ], [ 214.0, 164.0 ], [ 214.0, 163.0 ], [ 199.0, 163.0 ] ] ] } },
{ "type": "Feature", "properties": { "feature_type": "water", "confidence": 0.96, "classification_method": "heuristic" }, "geometry": { "type": "Polygon", "coordinates": [ [ [ 304.0, 220.0 ], [ 304.0, 221.0 ], [ 299.0, 221.0 ], [ 299.0, 222.0 ], [ 298.0, 222.0 ], [ 298.0, 223.0 ], [ 297.0, 223.0 ], [ 297.0, 224.0 ], [ 296.0, 224.0 ], [ 296.0, 225.0 ], [ 295.0, 225.0 ], [ 295.0, 237.0 ], [ 294.0, 237.0 ], [ 294.0, 239.0 ], [ 295.0, 239.0 ], [ 295.0, 247.0 ], [ 296.0, 247.0 ], [ 296.0, 251.0 ], [ 297.0, 251.0 ], [ 297.0, 255.0 ], [ 298.0, 255.0 ], [ 298.0, 257.0 ], [ 299.0, 257.0 ], [ 299.0, 261.0 ], [ 300.0, 261.0 ], [ 300.0, 263.0 ], [ 301.0, 263.0 ], [ 301.0, 264.0 ], [ 302.0, 264.0 ], [ 302.0, 265.0 ], [ 303.0, 265.0 ], [ 303.0, 266.0 ], [ 336.0, 266.0 ], [ 336.0, 262.0 ], [ 335.0, 262.0 ], [ 335.0, 258.0 ], [ 334.0, 258.0 ], [ 334.0, 255.0 ], [ 333.0, 255.0 ], [ 333.0, 252.0 ], [ 332.0, 252.0 ], [ 332.0, 250.0 ], [ 331.0, 250.0 ], [ 331.0, 247.0 ], [ 330.0, 247.0 ], [ 330.0, 243.0 ], [ 329.0, 243.0 ], [ 329.0, 241.0 ], [ 328.0, 241.0 ], [ 328.0, 238.0 ], [ 327.0, 238.0 ], [ 327.0, 235.0 ], [ 326.0, 235.0 ], [ 326.0, 231.0 ], [ 325.0, 231.0 ], [ 325.0, 228.0 ], [ 324.0, 228.0 ], [ 324.0, 225.0 ], [ 323.0, 225.0 ], [ 323.0, 222.0 ], [ 317.0, 222.0 ], [ 317.0, 221.0 ], [ 311.0, 221.0 ], [ 311.0, 220.0 ], [ 304.0, 220.0 ] ] ] } },
{ "type": "Feature", "properties": { "feature_type": "building", "confidence": 0.96, "classification_method": "heuristic" }, "geometry": { "type": "Polygon", "coordinates": [ [ [ 234.0, 10.0 ], [ 234.0, 11.0 ], [ 233.0, 11.0 ], [ 233.0, 24.0 ], [ 234.0, 24.0 ], [ 234.0, 33.0 ], [ 235.0, 33.0 ], [ 235.0, 35.0 ], [ 236.0, 35.0 ], [ 236.0, 36.0 ], [ 237.0, 36.0 ], [ 237.0, 35.0 ], [ 242.0, 35.0 ], [ 242.0, 34.0 ], [ 247.0, 34.0 ], [ 247.0, 35.0 ], [ 248.0, 35.0 ], [ 248.0, 37.0 ], [ 249.0, 37.0 ], [ 249.0, 43.0 ], [ 248.0, 43.0 ], [ 248.0, 46.0 ], [ 249.0, 46.0 ], [ 249.0, 47.0 ], [ 269.0, 47.0 ], [ 269.0, 48.0 ], [ 271.0, 48.0 ], [ 271.0, 47.0 ], [ 272.0, 47.0 ], [ 272.0, 35.0 ], [ 271.0, 35.0 ], [ 271.0, 33.0 ], [ 269.0, 33.0 ], [ 269.0, 32.0 ], [ 268.0, 32.0 ], [ 268.0, 31.0 ], [ 267.0, 31.0 ], [ 267.0, 12.0 ], [ 268.0, 12.0 ], [ 268.0, 11.0 ], [ 267.0, 11.0 ], [ 267.0, 10.0 ], [ 234.0, 10.0 ] ] ] } },
{ "type": "Feature", "properties": { "feature_type": "building", "confidence": 0.96, "classification_method": "heuristic" }, "geometry": { "type": "Polygon", "coordinates": [ [ [ 336.0, 15.0 ], [ 336.0, 16.0 ], [ 331.0, 16.0 ], [ 331.0, 17.0 ], [ 323.0, 17.0 ], [ 323.0, 18.0 ], [ 321.0, 18.0 ], [ 321.0, 30.0 ], [ 322.0, 30.0 ], [ 322.0, 36.0 ], [ 323.0, 36.0 ], [ 323.0, 37.0 ], [ 330.0, 37.0 ], [ 330.0, 36.0 ], [ 335.0, 36.0 ], [ 335.0, 37.0 ], [ 349.0, 37.0 ], [ 349.0, 36.0 ], [ 352.0, 36.0 ], [ 352.0, 35.0 ], [ 353.0, 35.0 ], [ 353.0, 17.0 ], [ 352.0, 17.0 ], [ 352.0, 15.0 ], [ 336.0, 15.0 ] ] ] } },
{ "type": "Feature", "properties": { "feature_type": "farm", "confidence": 0.95, "classification_method": "heuristic" }, "geometry": { "type": "Polygon", "coordinates": [ [ [ 332.0, 223.0 ], [ 332.0, 224.0 ], [ 331.0, 224.0 ], [ 331.0, 225.0 ], [ 330.0, 225.0 ], [ 330.0, 233.0 ], [ 331.0, 233.0 ], [ 331.0, 237.0 ], [ 332.0, 237.0 ], [ 332.0, 239.0 ], [ 333.0, 239.0 ], [ 333.0, 242.0 ], [ 334.0, 242.0 ], [ 334.0, 245.0 ], [ 335.0, 245.0 ], [ 335.0, 250.0 ], [ 336.0, 250.0 ], [ 336.0, 251.0 ], [ 337.0, 251.0 ], [ 337.0, 253.0 ], [ 338.0, 253.0 ], [ 338.0, 255.0 ], [ 340.0, 255.0 ], [ 340.0, 261.0 ], [ 341.0, 261.0 ], [ 341.0, 262.0 ], [ 342.0, 262.0 ], [ 342.0, 266.0 ], [ 343.0, 266.0 ], [ 343.0, 267.0 ], [ 350.0, 267.0 ], [ 350.0, 255.0 ], [ 351.0, 255.0 ], [ 351.0, 245.0 ], [ 350.0, 245.0 ], [ 350.0, 240.0 ], [ 349.0, 240.0 ], [ 349.0, 236.0 ], [ 348.0, 236.0 ], [ 348.0, 232.0 ], [ 347.0, 232.0 ], [ 347.0, 228.0 ], [ 346.0, 228.0 ], [ 346.0, 227.0 ], [ 345.0, 227.0 ], [ 345.0, 226.0 ], [ 341.0, 226.0 ], [ 341.0, 225.0 ], [ 339.0, 225.0 ], [ 339.0, 224.0 ], [ 337.0, 224.0 ], [ 337.0, 223.0 ], [ 332.0, 223.0 ] ] ] } },
{ "type": "Feature", "properties": { "feature_type": "water", "confidence": 0.95, "classification_method": "heuristic" }, "geometry": { "type": "Polygon", "coordinates": [ [ [ 46.0, 126.0 ], [ 46.0, 127.0 ], [ 45.0, 127.0 ], [ 45.0, 157.0 ], [ 44.0, 157.0 ], [ 44.0, 160.0 ], [ 45.0, 160.0 ], [ 45.0, 166.0 ], [ 49.0, 166.0 ], [ 49.0, 167.0 ], [ 70.0, 167.0 ], [ 70.0, 168.0 ], [ 72.0, 168.0 ], [ 72.0, 182.0 ], [ 71.0, 182.0 ], [ 71.0, 198.0 ], [ 74.0, 198.0 ], [ 74.0, 199.0 ], [ 78.0, 199.0 ], [ 78.0, 198.0 ], [ 102.0, 198.0 ], [ 102.0, 197.0 ], [ 103.0, 197.0 ], [ 103.0, 178.0 ], [ 104.0, 178.0 ], [ 104.0, 163.0 ], [ 103.0, 163.0 ], [ 103.0, 161.0 ], [ 102.0, 161.0 ], [ 102.0, 160.0 ], [ 97.0, 160.0 ], [ 97.0, 161.0 ], [ 84.0, 161.0 ], [ 84.0, 158.0 ], [ 83.0, 158.0 ], [ 83.0, 130.0 ], [ 79.0, 130.0 ], [ 79.0, 129.0 ], [ 67.0, 129.0 ], [ 67.0, 128.0 ], [ 60.0, 128.0 ], [ 60.0, 127.0 ], [ 50.0, 127.0 ], [ 50.0, 126.0 ], [ 46.0, 126.0 ] ] ] } },
{ "type": "Feature", "properties": { "feature_type": "building", "confidence": 0.95, "classification_method": "heuristic" }, "geometry": { "type": "Polygon", "coordinates": [ [ [ 37.0, 211.0 ], [ 37.0, 218.0 ], [ 36.0, 218.0 ], [ 36.0, 251.0 ], [ 35.0, 251.0 ], [ 35.0, 253.0 ], [ 36.0, 253.0 ], [ 36.0, 254.0 ], [ 37.0, 254.0 ], [ 37.0, 255.0 ], [ 40.0, 255.0 ], [ 40.0, 256.0 ], [ 49.0, 256.0 ], [ 49.0, 255.0 ], [ 50.0, 255.0 ], [ 50.0, 254.0 ], [ 51.0, 254.0 ], [ 51.0, 222.0 ], [ 52.0, 222.0 ], [ 52.0, 218.0 ], [ 51.0, 218.0 ], [ 51.0, 215.0 ], [ 52.0, 215.0 ], [ 52.0, 214.0 ], [ 51.0, 214.0 ], [ 51.0, 212.0 ], [ 50.0, 212.0 ], [ 50.0, 211.0 ], [ 37.0, 211.0 ] ] ] } },
{ "type": "Feature", "properties": { "feature_type": "building", "confidence": 0.95, "classification_method": "heuristic" }, "geometry": { "type": "Polygon", "coordinates": [ [ [ 192.0, 76.0 ], [ 192.0, 77.0 ], [ 182.0, 77.0 ], [ 182.0, 78.0 ], [ 175.0, 78.0 ], [ 175.0, 79.0 ], [ 174.0, 79.0 ], [ 174.0, 88.0 ], [ 173.0, 88.0 ], [ 173.0, 96.0 ], [ 174.0, 96.0 ], [ 174.0, 97.0 ], [ 177.0, 97.0 ], [ 177.0, 96.0 ], [ 178.0, 96.0 ], [ 178.0, 97.0 ], [ 179.0, 97.0 ], [ 179.0, 96.0 ], [ 202.0, 96.0 ], [ 202.0, 94.0 ], [ 203.0, 94.0 ], [ 203.0, 89.0 ], [ 202.0, 89.0 ], [ 202.0, 78.0 ], [ 196.0, 78.0 ], [ 196.0, 77.0 ], [ 195.0, 77.0 ], [ 195.0, 76.0 ], [ 192.0, 76.0 ] ] ] } },
{ "type": "Feature", "properties": { "feature_type": "building", "confidence": 0.95, "classification_method": "heuristic" }, "geometry": { "type": "Polygon", "coordinates": [ [ [ 195.0, 205.0 ], [ 195.0, 218.0 ], [ 197.0, 218.0 ], [ 197.0, 219.0 ], [ 202.0, 219.0 ], [ 202.0, 218.0 ], [ 208.0, 218.0 ], [ 208.0, 217.0 ], [ 214.0, 217.0 ], [ 214.0, 216.0 ], [ 215.0, 216.0 ], [ 215.0, 210.0 ], [ 214.0, 210.0 ], [ 214.0, 207.0 ], [ 212.0, 207.0 ], [ 212.0, 206.0 ], [ 206.0, 206.0 ], [ 206.0, 205.0 ], [ 195.0, 205.0 ] ] ] } },
{ "type": "Feature", "properties": { "feature_type": "water", "confidence": 0.95, "classification_method": "heuristic" }, "geometry": { "type": "Polygon", "coordinates": [ [ [ 354.0, 65.0 ], [ 354.0, 66.0 ], [ 352.0, 66.0 ], [ 352.0, 69.0 ], [ 351.0, 69.0 ], [ 351.0, 72.0 ], [ 350.0, 72.0 ], [ 350.0, 74.0 ], [ 349.0, 74.0 ], [ 349.0, 75.0 ], [ 348.0, 75.0 ], [ 348.0, 77.0 ], [ 347.0, 77.0 ], [ 347.0, 79.0 ], [ 346.0, 79.0 ], [ 346.0, 80.0 ], [ 345.0, 80.0 ], [ 345.0, 82.0 ], [ 344.0, 82.0 ], [ 344.0, 92.0 ], [ 347.0, 92.0 ], [ 347.0, 93.0 ], [ 355.0, 93.0 ], [ 355.0, 94.0 ], [ 365.0, 94.0 ], [ 365.0, 95.0 ], [ 372.0, 95.0 ], [ 372.0, 94.0 ], [ 376.0, 94.0 ], [ 376.0, 93.0 ], [ 378.0, 93.0 ], [ 378.0, 90.0 ], [ 379.0, 90.0 ], [ 379.0, 86.0 ], [ 378.0, 86.0 ], [ 378.0, 79.0 ], [ 377.0, 79.0 ], [ 377.0, 75.0 ], [ 375.0, 75.0 ], [ 375.0, 74.0 ], [ 372.0, 74.0 ], [ 372.0, 73.0 ], [ 371.0, 73.0 ], [ 371.0, 72.0 ], [ 370.0, 72.0 ], [ 370.0, 71.0 ], [ 369.0, 71.0 ], [ 369.0, 70.0 ], [ 367.0, 70.0 ], [ 367.0, 69.0 ], [ 366.0, 69.0 ], [ 366.0, 68.0 ], [ 363.0, 68.0 ], [ 363.0, 67.0 ], [ 361.0, 67.0 ], [ 361.0, 66.0 ], [ 357.0, 66.0 ], [ 357.0, 65.0 ], [ 354.0, 65.0 ] ] ] } },
{ "type": "Feature", "properties": { "feature_type": "building", "confidence": 0.95, "classification_method": "heuristic" }, "geometry": { "type": "Polygon", "coordinates": [ [ [ 343.0, 38.0 ], [ 343.0, 39.0 ], [ 341.0, 39.0 ], [ 341.0, 40.0 ], [ 338.0, 40.0 ], [ 338.0, 41.0 ], [ 337.0, 41.0 ], [ 337.0, 44.0 ], [ 336.0, 44.0 ], [ 336.0, 46.0 ], [ 335.0, 46.0 ], [ 335.0, 47.0 ], [ 333.0, 47.0 ], [ 333.0, 48.0 ], [ 332.0, 48.0 ], [ 332.0, 49.0 ], [ 331.0, 49.0 ], [ 331.0, 50.0 ], [ 329.0, 50.0 ], [ 329.0, 66.0 ], [ 330.0, 66.0 ], [ 330.0, 67.0 ], [ 331.0, 67.0 ], [ 331.0, 68.0 ], [ 332.0, 68.0 ], [ 332.0, 69.0 ], [ 335.0, 69.0 ], [ 335.0, 70.0 ], [ 337.0, 70.0 ], [ 337.0, 71.0 ], [ 338.0, 71.0 ], [ 338.0, 72.0 ], [ 343.0, 72.0 ], [ 343.0, 71.0 ], [ 344.0, 71.0 ], [ 344.0, 70.0 ], [ 345.0, 70.0 ], [ 345.0, 67.0 ], [ 346.0, 67.0 ], [ 346.0, 66.0 ], [ 348.0, 66.0 ], [ 348.0, 65.0 ], [ 349.0, 65.0 ], [ 349.0, 63.0 ], [ 350.0, 63.0 ], [ 350.0, 60.0 ], [ 351.0, 60.0 ], [ 351.0, 44.0 ], [ 350.0, 44.0 ], [ 350.0, 39.0 ], [ 349.0, 39.0 ], [ 349.0, 38.0 ], [ 343.0, 38.0 ] ] ] } },
{ "type": "Feature", "properties": { "feature_type": "building", "confidence": 0.94, "classification_method": "heuristic" }, "geometry": { "type": "Polygon", "coordinates": [ [ [ 383.0, 152.0 ], [ 383.0, 153.0 ], [ 379.0, 153.0 ], [ 379.0, 154.0 ], [ 374.0, 154.0 ], [ 374.0, 155.0 ], [ 373.0, 155.0 ], [ 373.0, 156.0 ], [ 372.0, 156.0 ], [ 372.0, 157.0 ], [ 371.0, 157.0 ], [ 371.0, 167.0 ], [ 370.0, 167.0 ], [ 370.0, 168.0 ], [ 367.0, 168.0 ], [ 367.0, 169.0 ], [ 366.0, 169.0 ], [ 366.0, 170.0 ], [ 365.0, 170.0 ], [ 365.0, 171.0 ], [ 364.0, 171.0 ], [ 364.0, 172.0 ], [ 362.0, 172.0 ], [ 362.0, 173.0 ], [ 361.0, 173.0 ], [ 361.0, 182.0 ], [ 362.0, 182.0 ], [ 362.0, 184.0 ], [ 366.0, 184.0 ], [ 366.0, 185.0 ], [ 367.0, 185.0 ], [ 367.0, 187.0 ], [ 368.0, 187.0 ], [ 368.0, 189.0 ], [ 369.0, 189.0 ], [ 369.0, 190.0 ], [ 370.0, 190.0 ], [ 370.0, 191.0 ], [ 371.0, 191.0 ], [ 371.0, 195.0 ], [ 370.0, 195.0 ], [ 370.0, 197.0 ], [ 371.0, 197.0 ], [ 371.0, 198.0 ], [ 372.0, 198.0 ], [ 372.0, 199.0 ], [ 373.0, 199.0 ], [ 373.0, 201.0 ], [ 374.0, 201.0 ], [ 374.0, 202.0 ], [ 386.0, 202.0 ], [ 386.0, 152.0 ], [ 383.0, 152.0 ] ] ] } },
{ "type": "Feature", "properties": { "feature_type": "building", "confidence": 0.94, "classification_method": "heuristic" }, "geometry": { "type": "Polygon", "coordinates": [ [ [ 271.0, 70.0 ], [ 271.0, 71.0 ], [ 267.0, 71.0 ], [ 267.0, 72.0 ], [ 259.0, 72.0 ], [ 259.0, 78.0 ], [ 258.0, 78.0 ], [ 258.0, 79.0 ], [ 257.0, 79.0 ], [ 257.0, 84.0 ], [ 258.0, 84.0 ], [ 258.0, 85.0 ], [ 259.0, 85.0 ], [ 259.0, 87.0 ], [ 260.0, 87.0 ], [ 260.0, 89.0 ], [ 261.0, 89.0 ], [ 261.0, 91.0 ], [ 262.0, 91.0 ], [ 262.0, 92.0 ], [ 263.0, 92.0 ], [ 263.0, 93.0 ], [ 265.0, 93.0 ], [ 265.0, 94.0 ], [ 266.0, 94.0 ], [ 266.0, 95.0 ], [ 268.0, 95.0 ], [ 268.0, 96.0 ], [ 269.0, 96.0 ], [ 269.0, 97.0 ], [ 270.0, 97.0 ], [ 270.0, 99.0 ], [ 271.0, 99.0 ], [ 271.0, 100.0 ], [ 273.0, 100.0 ], [ 273.0, 99.0 ], [ 274.0, 99.0 ], [ 274.0, 97.0 ], [ 275.0, 97.0 ], [ 275.0, 96.0 ], [ 276.0, 96.0 ], [ 276.0, 94.0 ], [ 277.0, 94.0 ], [ 277.0, 93.0 ], [ 278.0, 93.0 ], [ 278.0, 92.0 ], [ 279.0, 92.0 ], [ 279.0, 91.0 ], [ 280.0, 91.0 ], [ 280.0, 90.0 ], [ 281.0, 90.0 ], [ 281.0, 88.0 ], [ 282.0, 88.0 ], [ 282.0, 87.0 ], [ 283.0, 87.0 ], [ 283.0, 86.0 ], [ 284.0, 86.0 ], [ 284.0, 85.0 ], [ 285.0, 85.0 ], [ 285.0, 83.0 ], [ 286.0, 83.0 ], [ 286.0, 82.0 ], [ 287.0, 82.0 ], [ 287.0, 80.0 ], [ 288.0, 80.0 ], [ 288.0, 78.0 ], [ 289.0, 78.0 ], [ 289.0, 76.0 ], [ 290.0, 76.0 ], [ 290.0, 73.0 ], [ 291.0, 73.0 ], [ 291.0, 70.0 ], [ 289.0, 70.0 ], [ 289.0, 72.0 ], [ 285.0, 72.0 ], [ 285.0, 73.0 ], [ 284.0, 73.0 ], [ 284.0, 74.0 ], [ 282.0, 74.0 ], [ 282.0, 73.0 ], [ 281.0, 73.0 ], [ 281.0, 70.0 ], [ 271.0, 70.0 ] ] ] } },
{ "type": "Feature", "properties": { "feature_type": "water", "confidence": 0.94, "classification_method": "heuristic" }, "geometry": { "type": "Polygon", "coordinates": [ [ [ 94.0, 138.0 ], [ 94.0, 139.0 ], [ 95.0, 139.0 ], [ 95.0, 138.0 ], [ 94.0, 138.0 ] ] ] } },
{ "type": "Feature", "properties": { "feature_type": "water", "confidence": 0.94, "classification_method": "heuristic" }, "geometry": { "type": "Polygon", "coordinates": [ [ [ 94.0, 144.0 ], [ 94.0, 145.0 ], [ 95.0, 145.0 ], [ 95.0, 144.0 ], [ 94.0, 144.0 ] ] ] } },
{ "type": "Feature", "properties": { "feature_type": "water", "confidence": 0.93, "classification_method": "heuristic" }, "geometry": { "type": "Polygon", "coordinates": [ [ [ 116.0, 104.0 ], [ 116.0, 105.0 ], [ 114.0, 105.0 ], [ 114.0, 110.0 ], [ 115.0, 110.0 ], [ 115.0, 113.0 ], [ 116.0, 113.0 ], [ 116.0, 115.0 ], [ 117.0, 115.0 ], [ 117.0, 117.0 ], [ 118.0, 117.0 ], [ 118.0, 120.0 ], [ 119.0, 120.0 ], [ 119.0, 123.0 ], [ 120.0, 123.0 ], [ 120.0, 125.0 ], [ 121.0, 125.0 ], [ 121.0, 128.0 ], [ 122.0, 128.0 ], [ 122.0, 129.0 ], [ 128.0, 129.0 ], [ 128.0, 126.0 ], [ 127.0, 126.0 ], [ 127.0, 121.0 ], [ 126.0, 121.0 ], [ 126.0, 119.0 ], [ 127.0, 119.0 ], [ 127.0, 118.0 ], [ 126.0, 118.0 ], [ 126.0, 116.0 ], [ 125.0, 116.0 ], [ 125.0, 112.0 ], [ 126.0, 112.0 ], [ 126.0, 110.0 ], [ 125.0, 110.0 ], [ 125.0, 111.0 ], [ 124.0, 111.0 ], [ 124.0, 107.0 ], [ 125.0, 107.0 ], [ 125.0, 105.0 ], [ 124.0, 105.0 ], [ 124.0, 104.0 ], [ 122.0, 104.0 ], [ 122.0, 105.0 ], [ 119.0, 105.0 ], [ 119.0, 106.0 ], [ 118.0, 106.0 ], [ 118.0, 104.0 ], [ 116.0, 104.0 ] ] ] } },
{ "type": "Feature", "properties": { "feature_type": "water", "confidence": 0.93, "classification_method": "heuristic" }, "geometry": { "type": "Polygon", "coordinates": [ [ [ 105.0, 75.0 ], [ 105.0, 76.0 ], [ 103.0, 76.0 ], [ 103.0, 79.0 ], [ 104.0, 79.0 ], [ 104.0, 81.0 ], [ 105.0, 81.0 ], [ 105.0, 83.0 ], [ 106.0, 83.0 ], [ 106.0, 87.0 ], [ 107.0, 87.0 ], [ 107.0, 91.0 ], [ 108.0, 91.0 ], [ 108.0, 94.0 ], [ 109.0, 94.0 ], [ 109.0, 96.0 ], [ 110.0, 96.0 ], [ 110.0, 97.0 ], [ 111.0, 97.0 ], [ 111.0, 98.0 ], [ 112.0, 98.0 ], [ 112.0, 99.0 ], [ 113.0, 99.0 ], [ 113.0, 100.0 ], [ 114.0, 100.0 ], [ 114.0, 101.0 ], [ 115.0, 101.0 ], [ 115.0, 102.0 ], [ 116.0, 102.0 ], [ 116.0, 101.0 ], [ 129.0, 101.0 ], [ 129.0, 102.0 ], [ 130.0, 102.0 ], [ 130.0, 105.0 ], [ 131.0, 105.0 ], [ 131.0, 116.0 ], [ 132.0, 116.0 ], [ 132.0, 118.0 ], [ 131.0, 118.0 ], [ 131.0, 119.0 ], [ 132.0, 119.0 ], [ 132.0, 121.0 ], [ 130.0, 121.0 ], [ 130.0, 122.0 ], [ 132.0, 122.0 ], [ 132.0, 124.0 ], [ 130.0, 124.0 ], [ 130.0, 126.0 ], [ 131.0, 126.0 ], [ 131.0, 125.0 ], [ 132.0, 125.0 ], [ 132.0, 129.0 ], [ 133.0, 129.0 ], [ 133.0, 130.0 ], [ 134.0, 130.0 ], [ 134.0, 131.0 ], [ 143.0, 131.0 ], [ 143.0, 132.0 ], [ 152.0, 132.0 ], [ 152.0, 133.0 ], [ 168.0, 133.0 ], [ 168.0, 134.0 ], [ 172.0, 134.0 ], [ 172.0, 133.0 ], [ 174.0, 133.0 ], [ 174.0, 125.0 ], [ 173.0, 125.0 ], [ 173.0, 120.0 ], [ 172.0, 120.0 ], [ 172.0, 114.0 ], [ 173.0, 114.0 ], [ 173.0, 111.0 ], [ 175.0, 111.0 ], [ 175.0, 110.0 ], [ 181.0, 110.0 ], [ 181.0, 109.0 ], [ 194.0, 109.0 ], [ 194.0, 108.0 ], [ 199.0, 108.0 ], [ 199.0, 107.0 ], [ 200.0, 107.0 ], [ 200.0, 105.0 ], [ 201.0, 105.0 ], [ 201.0, 98.0 ], [ 200.0, 98.0 ], [ 200.0, 97.0 ], [ 199.0, 97.0 ], [ 199.0, 98.0 ], [ 198.0, 98.0 ], [ 198.0, 97.0 ], [ 196.0, 97.0 ], [ 196.0, 98.0 ], [ 194.0, 98.0 ], [ 194.0, 97.0 ], [ 173.0, 97.0 ], [ 173.0, 82.0 ], [ 174.0, 82.0 ], [ 174.0, 79.0 ], [ 173.0, 79.0 ], [ 173.0, 78.0 ], [ 171.0, 78.0 ], [ 171.0, 77.0 ], [ 159.0, 77.0 ], [ 159.0, 78.0 ], [ 146.0, 78.0 ], [ 146.0, 77.0 ], [ 132.0, 77.0 ], [ 132.0, 76.0 ], [ 126.0, 76.0 ], [ 126.0, 75.0 ], [ 105.0, 75.0 ] ] ] } },
{ "type": "Feature", "properties": { "feature_type": "building", "confidence": 0.93, "classification_method": "heuristic" }, "geometry": { "type": "Polygon", "coordinates": [ [ [ 166.0, 206.0 ], [ 166.0, 209.0 ], [ 167.0, 209.0 ], [ 167.0, 211.0 ], [ 168.0, 211.0 ], [ 168.0, 213.0 ], [ 169.0, 213.0 ], [ 169.0, 214.0 ], [ 170.0, 214.0 ], [ 170.0, 216.0 ], [ 171.0, 216.0 ], [ 171.0, 219.0 ], [ 172.0, 219.0 ], [ 172.0, 221.0 ], [ 171.0, 221.0 ], [ 171.0, 223.0 ], [ 170.0, 223.0 ], [ 170.0, 245.0 ], [ 171.0, 245.0 ], [ 171.0, 250.0 ], [ 172.0, 250.0 ], [ 172.0, 254.0 ], [ 171.0, 254.0 ], [ 171.0, 265.0 ], [ 172.0, 265.0 ], [ 172.0, 266.0 ], [ 203.0, 266.0 ], [ 203.0, 263.0 ], [ 204.0, 263.0 ], [ 204.0, 260.0 ], [ 205.0, 260.0 ], [ 205.0, 257.0 ], [ 206.0, 257.0 ], [ 206.0, 254.0 ], [ 207.0, 254.0 ], [ 207.0, 252.0 ], [ 208.0, 252.0 ], [ 208.0, 250.0 ], [ 209.0, 250.0 ], [ 209.0, 248.0 ], [ 210.0, 248.0 ], [ 210.0, 246.0 ], [ 211.0, 246.0 ], [ 211.0, 242.0 ], [ 212.0, 242.0 ], [ 212.0, 238.0 ], [ 213.0, 238.0 ], [ 213.0, 235.0 ], [ 214.0, 235.0 ], [ 214.0, 228.0 ], [ 213.0, 228.0 ], [ 213.0, 227.0 ], [ 211.0, 227.0 ], [ 211.0, 226.0 ], [ 210.0, 226.0 ], [ 210.0, 225.0 ], [ 208.0, 225.0 ], [ 208.0, 224.0 ], [ 205.0, 224.0 ], [ 205.0, 223.0 ], [ 203.0, 223.0 ], [ 203.0, 222.0 ], [ 201.0, 222.0 ], [ 201.0, 221.0 ], [ 199.0, 221.0 ], [ 199.0, 220.0 ], [ 197.0, 220.0 ], [ 197.0, 219.0 ], [ 195.0, 219.0 ], [ 195.0, 217.0 ], [ 194.0, 217.0 ], [ 194.0, 207.0 ], [ 193.0, 207.0 ], [ 193.0, 206.0 ], [ 166.0, 206.0 ] ] ] } },
{ "type": "Feature", "properties": { "feature_type": "water", "confidence": 0.93, "classification_method": "heuristic" }, "geometry": { "type": "Polygon", "coordinates": [ [ [ 1.0, 6.0 ], [ 1.0, 7.0 ], [ 0.0, 7.0 ], [ 0.0, 119.0 ], [ 5.0, 119.0 ], [ 5.0, 120.0 ], [ 16.0, 120.0 ], [ 16.0, 121.0 ], [ 37.0, 121.0 ], [ 37.0, 122.0 ], [ 53.0, 122.0 ], [ 53.0, 123.0 ], [ 59.0, 123.0 ], [ 59.0, 124.0 ], [ 69.0, 124.0 ], [ 69.0, 125.0 ], [ 76.0, 125.0 ], [ 76.0, 126.0 ], [ 89.0, 126.0 ], [ 89.0, 127.0 ], [ 112.0, 127.0 ], [ 112.0, 126.0 ], [ 114.0, 126.0 ], [ 114.0, 121.0 ], [ 112.0, 121.0 ], [ 112.0, 120.0 ], [ 111.0, 120.0 ], [ 111.0, 112.0 ], [ 110.0, 112.0 ], [ 110.0, 108.0 ], [ 109.0, 108.0 ], [ 109.0, 103.0 ], [ 108.0, 103.0 ], [ 108.0, 100.0 ], [ 107.0, 100.0 ], [ 107.0, 98.0 ], [ 106.0, 98.0 ], [ 106.0, 96.0 ], [ 105.0, 96.0 ], [ 105.0, 93.0 ], [ 104.0, 93.0 ], [ 104.0, 91.0 ], [ 103.0, 91.0 ], [ 103.0, 85.0 ], [ 102.0, 85.0 ], [ 102.0, 84.0 ], [ 100.0, 84.0 ], [ 100.0, 82.0 ], [ 99.0, 82.0 ], [ 99.0, 81.0 ], [ 98.0, 81.0 ], [ 98.0, 79.0 ], [ 97.0, 79.0 ], [ 97.0, 78.0 ], [ 96.0, 78.0 ], [ 96.0, 76.0 ], [ 95.0, 76.0 ], [ 95.0, 75.0 ], [ 94.0, 75.0 ], [ 94.0, 74.0 ], [ 93.0, 74.0 ], [ 93.0, 73.0 ], [ 92.0, 73.0 ], [ 92.0, 72.0 ], [ 91.0, 72.0 ], [ 91.0, 71.0 ], [ 90.0, 71.0 ], [ 90.0, 68.0 ], [ 89.0, 68.0 ], [ 89.0, 67.0 ], [ 87.0, 67.0 ], [ 87.0, 66.0 ], [ 86.0, 66.0 ], [ 86.0, 64.0 ], [ 85.0, 64.0 ], [ 85.0, 62.0 ], [ 84.0, 62.0 ], [ 84.0, 60.0 ], [ 83.0, 60.0 ], [ 83.0, 59.0 ], [ 82.0, 59.0 ], [ 82.0, 58.0 ], [ 81.0, 58.0 ], [ 81.0, 57.0 ], [ 80.0, 57.0 ], [ 80.0, 55.0 ], [ 79.0, 55.0 ], [ 79.0, 53.0 ], [ 78.0, 53.0 ], [ 78.0, 51.0 ], [ 77.0, 51.0 ], [ 77.0, 50.0 ], [ 76.0, 50.0 ], [ 76.0, 49.0 ], [ 75.0, 49.0 ], [ 75.0, 47.0 ], [ 74.0, 47.0 ], [ 74.0, 46.0 ], [ 73.0, 46.0 ], [ 73.0, 45.0 ], [ 72.0, 45.0 ], [ 72.0, 43.0 ], [ 71.0, 43.0 ], [ 71.0, 42.0 ], [ 70.0, 42.0 ], [ 70.0, 41.0 ], [ 65.0, 41.0 ], [ 65.0, 42.0 ], [ 61.0, 42.0 ], [ 61.0, 43.0 ], [ 60.0, 43.0 ], [ 60.0, 44.0 ], [ 59.0, 44.0 ], [ 59.0, 45.0 ], [ 60.0, 45.0 ], [ 60.0, 47.0 ], [ 59.0, 47.0 ], [ 59.0, 48.0 ], [ 60.0, 48.0 ], [ 60.0, 54.0 ], [ 59.0, 54.0 ], [ 59.0, 55.0 ], [ 58.0, 55.0 ], [ 58.0, 56.0 ], [ 52.0, 56.0 ], [ 52.0, 55.0 ], [ 51.0, 55.0 ], [ 51.0, 54.0 ], [ 50.0, 54.0 ], [ 50.0, 51.0 ], [ 51.0, 51.0 ], [ 51.0, 48.0 ], [ 50.0, 48.0 ], [ 50.0, 47.0 ], [ 51.0, 47.0 ], [ 51.0, 34.0 ], [ 52.0, 34.0 ], [ 52.0, 27.0 ], [ 53.0, 27.0 ], [ 53.0, 23.0 ], [ 52.0, 23.0 ], [ 52.0, 22.0 ], [ 53.0, 22.0 ], [ 53.0, 15.0 ], [ 52.0, 15.0 ], [ 52.0, 13.0 ], [ 51.0, 13.0 ], [ 51.0, 12.0 ], [ 49.0, 12.0 ], [ 49.0, 10.0 ], [ 48.0, 10.0 ], [ 48.0, 9.0 ], [ 45.0, 9.0 ], [ 45.0, 8.0 ], [ 43.0, 8.0 ], [ 43.0, 7.0 ], [ 40.0, 7.0 ], [ 40.0, 6.0 ], [ 39.0, 6.0 ], [ 39.0, 7.0 ], [ 38.0, 7.0 ], [ 38.0, 6.0 ], [ 36.0, 6.0 ], [ 36.0, 7.0 ], [ 35.0, 7.0 ], [ 35.0, 6.0 ], [ 33.0, 6.0 ], [ 33.0, 7.0 ], [ 32.0, 7.0 ], [ 32.0, 6.0 ], [ 30.0, 6.0 ], [ 30.0, 7.0 ], [ 3.0, 7.0 ], [ 3.0, 6.0 ], [ 1.0, 6.0 ] ] ] } },
{ "type": "Feature", "properties": { "feature_type": "water", "confidence": 0.92, "classification_method": "heuristic" }, "geometry": { "type": "Polygon", "coordinates": [ [ [ 215.0, 24.0 ], [ 215.0, 25.0 ], [ 207.0, 25.0 ], [ 207.0, 26.0 ], [ 204.0, 26.0 ], [ 204.0, 27.0 ], [ 203.0, 27.0 ], [ 203.0, 37.0 ], [ 204.0, 37.0 ], [ 204.0, 49.0 ], [ 203.0, 49.0 ], [ 203.0, 52.0 ], [ 201.0, 52.0 ], [ 201.0, 53.0 ], [ 200.0, 53.0 ], [ 200.0, 63.0 ], [ 202.0, 63.0 ], [ 202.0, 64.0 ], [ 203.0, 64.0 ], [ 203.0, 75.0 ], [ 202.0, 75.0 ], [ 202.0, 77.0 ], [ 203.0, 77.0 ], [ 203.0, 103.0 ], [ 214.0, 103.0 ], [ 214.0, 102.0 ], [ 215.0, 102.0 ], [ 215.0, 101.0 ], [ 216.0, 101.0 ], [ 216.0, 89.0 ], [ 215.0, 89.0 ], [ 215.0, 68.0 ], [ 216.0, 68.0 ], [ 216.0, 66.0 ], [ 219.0, 66.0 ], [ 219.0, 67.0 ], [ 220.0, 67.0 ], [ 220.0, 66.0 ], [ 222.0, 66.0 ], [ 222.0, 61.0 ], [ 221.0, 61.0 ], [ 221.0, 50.0 ], [ 222.0, 50.0 ], [ 222.0, 49.0 ], [ 223.0, 49.0 ], [ 223.0, 48.0 ], [ 224.0, 48.0 ], [ 224.0, 45.0 ], [ 225.0, 45.0 ], [ 225.0, 42.0 ], [ 229.0, 42.0 ], [ 229.0, 41.0 ], [ 232.0, 41.0 ], [ 232.0, 39.0 ], [ 233.0, 39.0 ], [ 233.0, 31.0 ], [ 232.0, 31.0 ], [ 232.0, 25.0 ], [ 231.0, 25.0 ], [ 231.0, 24.0 ], [ 215.0, 24.0 ] ] ] } },
{ "type": "Feature", "properties": { "feature_type": "water", "confidence": 0.92, "classification_method": "heuristic" }, "geometry": { "type": "Polygon", "coordinates": [ [ [ 291.0, 158.0 ], [ 291.0, 159.0 ], [ 290.0, 159.0 ], [ 290.0, 164.0 ], [ 291.0, 164.0 ], [ 291.0, 175.0 ], [ 292.0, 175.0 ], [ 292.0, 188.0 ], [ 293.0, 188.0 ], [ 293.0, 197.0 ], [ 294.0, 197.0 ], [ 294.0, 212.0 ], [ 295.0, 212.0 ], [ 295.0, 214.0 ], [ 297.0, 214.0 ], [ 297.0, 215.0 ], [ 301.0, 215.0 ], [ 301.0, 213.0 ], [ 302.0, 213.0 ], [ 302.0, 212.0 ], [ 309.0, 212.0 ], [ 309.0, 213.0 ], [ 311.0, 213.0 ], [ 311.0, 214.0 ], [ 312.0, 214.0 ], [ 312.0, 215.0 ], [ 315.0, 215.0 ], [ 315.0, 214.0 ], [ 322.0, 214.0 ], [ 322.0, 195.0 ], [ 321.0, 195.0 ], [ 321.0, 189.0 ], [ 320.0, 189.0 ], [ 320.0, 187.0 ], [ 319.0, 187.0 ], [ 319.0, 184.0 ], [ 318.0, 184.0 ], [ 318.0, 182.0 ], [ 317.0, 182.0 ], [ 317.0, 181.0 ], [ 316.0, 181.0 ], [ 316.0, 179.0 ], [ 315.0, 179.0 ], [ 315.0, 177.0 ], [ 314.0, 177.0 ], [ 314.0, 172.0 ], [ 313.0, 172.0 ], [ 313.0, 168.0 ], [ 312.0, 168.0 ], [ 312.0, 164.0 ], [ 311.0, 164.0 ], [ 311.0, 161.0 ], [ 310.0, 161.0 ], [ 310.0, 160.0 ], [ 295.0, 160.0 ], [ 295.0, 159.0 ], [ 293.0, 159.0 ], [ 293.0, 158.0 ], [ 291.0, 158.0 ] ] ] } },
{ "type": "Feature", "properties": { "feature_type": "water", "confidence": 0.91, "classification_method": "heuristic" }, "geometry": { "type": "Polygon", "coordinates": [ [ [ 84.0, 10.0 ], [ 84.0, 12.0 ], [ 113.0, 12.0 ], [ 113.0, 10.0 ], [ 84.0, 10.0 ] ] ] } },
{ "type": "Feature", "properties": { "feature_type": "water", "confidence": 0.91, "classification_method": "heuristic" }, "geometry": { "type": "Polygon", "coordinates": [ [ [ 148.0, 10.0 ], [ 148.0, 11.0 ], [ 147.0, 11.0 ], [ 147.0, 12.0 ], [ 148.0, 12.0 ], [ 148.0, 24.0 ], [ 151.0, 24.0 ], [ 151.0, 25.0 ], [ 173.0, 25.0 ], [ 173.0, 24.0 ], [ 215.0, 24.0 ], [ 215.0, 23.0 ], [ 225.0, 23.0 ], [ 225.0, 22.0 ], [ 229.0, 22.0 ], [ 229.0, 21.0 ], [ 230.0, 21.0 ], [ 230.0, 19.0 ], [ 231.0, 19.0 ], [ 231.0, 18.0 ], [ 232.0, 18.0 ], [ 232.0, 13.0 ], [ 231.0, 13.0 ], [ 231.0, 11.0 ], [ 198.0, 11.0 ], [ 198.0, 10.0 ], [ 148.0, 10.0 ] ] ] } },
{ "type": "Feature", "properties": { "feature_type": "farm", "confidence": 0.9, "classification_method": "heuristic" }, "geometry": { "type": "Polygon", "coordinates": [ [ [ 354.0, 99.0 ], [ 354.0, 100.0 ], [ 352.0, 100.0 ], [ 352.0, 105.0 ], [ 351.0, 105.0 ], [ 351.0, 112.0 ], [ 350.0, 112.0 ], [ 350.0, 118.0 ], [ 349.0, 118.0 ], [ 349.0, 125.0 ], [ 348.0, 125.0 ], [ 348.0, 134.0 ], [ 349.0, 134.0 ], [ 349.0, 135.0 ], [ 351.0, 135.0 ], [ 351.0, 136.0 ], [ 356.0, 136.0 ], [ 356.0, 135.0 ], [ 361.0, 135.0 ], [ 361.0, 136.0 ], [ 362.0, 136.0 ], [ 362.0, 135.0 ], [ 363.0, 135.0 ], [ 363.0, 136.0 ], [ 365.0, 136.0 ], [ 365.0, 135.0 ], [ 371.0, 135.0 ], [ 371.0, 134.0 ], [ 373.0, 134.0 ], [ 373.0, 133.0 ], [ 374.0, 133.0 ], [ 374.0, 132.0 ], [ 375.0, 132.0 ], [ 375.0, 131.0 ], [ 376.0, 131.0 ], [ 376.0, 130.0 ], [ 377.0, 130.0 ], [ 377.0, 129.0 ], [ 378.0, 129.0 ], [ 378.0, 128.0 ], [ 379.0, 128.0 ], [ 379.0, 126.0 ], [ 380.0, 126.0 ], [ 380.0, 125.0 ], [ 382.0, 125.0 ], [ 382.0, 124.0 ], [ 383.0, 124.0 ], [ 383.0, 113.0 ], [ 382.0, 113.0 ], [ 382.0, 110.0 ], [ 381.0, 110.0 ], [ 381.0, 109.0 ], [ 380.0, 109.0 ], [ 380.0, 107.0 ], [ 376.0, 107.0 ], [ 376.0, 106.0 ], [ 372.0, 106.0 ], [ 372.0, 107.0 ], [ 371.0, 107.0 ], [ 371.0, 106.0 ], [ 367.0, 106.0 ], [ 367.0, 107.0 ], [ 364.0, 107.0 ], [ 364.0, 106.0 ], [ 361.0, 106.0 ], [ 361.0, 105.0 ], [ 360.0, 105.0 ], [ 360.0, 104.0 ], [ 359.0, 104.0 ], [ 359.0, 103.0 ], [ 358.0, 103.0 ], [ 358.0, 102.0 ], [ 356.0, 102.0 ], [ 356.0, 101.0 ], [ 357.0, 101.0 ], [ 357.0, 100.0 ], [ 356.0, 100.0 ], [ 356.0, 99.0 ], [ 354.0, 99.0 ] ] ] } },
{ "type": "Feature", "properties": { "feature_type": "water", "confidence": 0.9, "classification_method": "heuristic" }, "geometry": { "type": "Polygon", "coordinates": [ [ [ 80.0, 253.0 ], [ 80.0, 266.0 ], [ 81.0, 266.0 ], [ 81.0, 267.0 ], [ 89.0, 267.0 ], [ 89.0, 254.0 ], [ 88.0, 254.0 ], [ 88.0, 253.0 ], [ 80.0, 253.0 ] ] ] } },
{ "type": "Feature", "properties": { "feature_type": "building", "confidence": 0.9, "classification_method": "heuristic" }, "geometry": { "type": "Polygon", "coordinates": [ [ [ 366.0, 236.0 ], [ 366.0, 238.0 ], [ 365.0, 238.0 ], [ 365.0, 247.0 ], [ 366.0, 247.0 ], [ 366.0, 250.0 ], [ 367.0, 250.0 ], [ 367.0, 253.0 ], [ 368.0, 253.0 ], [ 368.0, 255.0 ], [ 369.0, 255.0 ], [ 369.0, 259.0 ], [ 370.0, 259.0 ], [ 370.0, 264.0 ], [ 371.0, 264.0 ], [ 371.0, 266.0 ], [ 372.0, 266.0 ], [ 372.0, 267.0 ], [ 386.0, 267.0 ], [ 386.0, 244.0 ], [ 385.0, 244.0 ], [ 385.0, 243.0 ], [ 384.0, 243.0 ], [ 384.0, 242.0 ], [ 383.0, 242.0 ], [ 383.0, 241.0 ], [ 381.0, 241.0 ], [ 381.0, 240.0 ], [ 380.0, 240.0 ], [ 380.0, 239.0 ], [ 379.0, 239.0 ], [ 379.0, 238.0 ], [ 376.0, 238.0 ], [ 376.0, 237.0 ], [ 373.0, 237.0 ], [ 373.0, 236.0 ], [ 366.0, 236.0 ] ] ] } },
{ "type": "Feature", "properties": { "feature_type": "water", "confidence": 0.89, "classification_method": "heuristic" }, "geometry": { "type": "Polygon", "coordinates": [ [ [ 298.0, 212.0 ], [ 298.0, 213.0 ], [ 297.0, 213.0 ], [ 297.0, 214.0 ], [ 296.0, 214.0 ], [ 296.0, 215.0 ], [ 297.0, 215.0 ], [ 297.0, 216.0 ], [ 299.0, 216.0 ], [ 299.0, 219.0 ], [ 300.0, 219.0 ], [ 300.0, 220.0 ], [ 308.0, 220.0 ], [ 308.0, 219.0 ], [ 310.0, 219.0 ], [ 310.0, 218.0 ], [ 311.0, 218.0 ], [ 311.0, 217.0 ], [ 312.0, 217.0 ], [ 312.0, 213.0 ], [ 311.0, 213.0 ], [ 311.0, 212.0 ], [ 298.0, 212.0 ] ] ] } },
{ "type": "Feature", "properties": { "feature_type": "water", "confidence": 0.89, "classification_method": "heuristic" }, "geometry": { "type": "Polygon", "coordinates": [ [ [ 0.0, 167.0 ], [ 0.0, 266.0 ], [ 13.0, 266.0 ], [ 13.0, 262.0 ], [ 14.0, 262.0 ], [ 14.0, 234.0 ], [ 15.0, 234.0 ], [ 15.0, 232.0 ], [ 14.0, 232.0 ], [ 14.0, 231.0 ], [ 15.0, 231.0 ], [ 15.0, 230.0 ], [ 14.0, 230.0 ], [ 14.0, 228.0 ], [ 15.0, 228.0 ], [ 15.0, 226.0 ], [ 14.0, 226.0 ], [ 14.0, 225.0 ], [ 15.0, 225.0 ], [ 15.0, 213.0 ], [ 16.0, 213.0 ], [ 16.0, 192.0 ], [ 17.0, 192.0 ], [ 17.0, 168.0 ], [ 15.0, 168.0 ], [ 15.0, 167.0 ], [ 0.0, 167.0 ] ] ] } },
{ "type": "Feature", "properties": { "feature_type": "building", "confidence": 0.89, "classification_method": "heuristic" }, "geometry": { "type": "Polygon", "coordinates": [ [ [ 161.0, 221.0 ], [ 161.0, 222.0 ], [ 131.0, 222.0 ], [ 131.0, 223.0 ], [ 124.0, 223.0 ], [ 124.0, 233.0 ], [ 125.0, 233.0 ], [ 125.0, 265.0 ], [ 126.0, 265.0 ], [ 126.0, 266.0 ], [ 133.0, 266.0 ], [ 133.0, 265.0 ], [ 135.0, 265.0 ], [ 135.0, 264.0 ], [ 134.0, 264.0 ], [ 134.0, 263.0 ], [ 133.0, 263.0 ], [ 133.0, 258.0 ], [ 136.0, 258.0 ], [ 136.0, 257.0 ], [ 133.0, 257.0 ], [ 133.0, 255.0 ], [ 139.0, 255.0 ], [ 139.0, 256.0 ], [ 140.0, 256.0 ], [ 140.0, 261.0 ], [ 141.0, 261.0 ], [ 141.0, 262.0 ], [ 140.0, 262.0 ], [ 140.0, 265.0 ], [ 141.0, 265.0 ], [ 141.0, 266.0 ], [ 144.0, 266.0 ], [ 144.0, 267.0 ], [ 169.0, 267.0 ], [ 169.0, 266.0 ], [ 170.0, 266.0 ], [ 170.0, 265.0 ], [ 171.0, 265.0 ], [ 171.0, 254.0 ], [ 172.0, 254.0 ], [ 172.0, 249.0 ], [ 171.0, 249.0 ], [ 171.0, 246.0 ], [ 170.0, 246.0 ], [ 170.0, 224.0 ], [ 171.0, 224.0 ], [ 171.0, 222.0 ], [ 170.0, 222.0 ], [ 170.0, 221.0 ], [ 161.0, 221.0 ] ] ] } },
{ "type": "Feature", "properties": { "feature_type": "water", "confidence": 0.86, "classification_method": "heuristic" }, "geometry": { "type": "Polygon", "coordinates": [ [ [ 319.0, 10.0 ], [ 319.0, 11.0 ], [ 318.0, 11.0 ], [ 318.0, 16.0 ], [ 319.0, 16.0 ], [ 319.0, 17.0 ], [ 320.0, 17.0 ], [ 320.0, 18.0 ], [ 321.0, 18.0 ], [ 321.0, 17.0 ], [ 331.0, 17.0 ], [ 331.0, 16.0 ], [ 338.0, 16.0 ], [ 338.0, 15.0 ], [ 350.0, 15.0 ], [ 350.0, 12.0 ], [ 351.0, 12.0 ], [ 351.0, 11.0 ], [ 349.0, 11.0 ], [ 349.0, 10.0 ], [ 319.0, 10.0 ] ] ] } },
{ "type": "Feature", "properties": { "feature_type": "building", "confidence": 0.86, "classification_method": "heuristic" }, "geometry": { "type": "Polygon", "coordinates": [ [ [ 205.0, 189.0 ], [ 205.0, 190.0 ], [ 204.0, 190.0 ], [ 204.0, 193.0 ], [ 205.0, 193.0 ], [ 205.0, 194.0 ], [ 210.0, 194.0 ], [ 210.0, 190.0 ], [ 209.0, 190.0 ], [ 209.0, 189.0 ], [ 205.0, 189.0 ] ] ] } },
{ "type": "Feature", "properties": { "feature_type": "water", "confidence": 0.85, "classification_method": "heuristic" }, "geometry": { "type": "Polygon", "coordinates": [ [ [ 337.0, 166.0 ], [ 337.0, 172.0 ], [ 338.0, 172.0 ], [ 338.0, 173.0 ], [ 342.0, 173.0 ], [ 342.0, 172.0 ], [ 343.0, 172.0 ], [ 343.0, 168.0 ], [ 342.0, 168.0 ], [ 342.0, 166.0 ], [ 337.0, 166.0 ] ] ] } },
{ "type": "Feature", "properties": { "feature_type": "building", "confidence": 0.84, "classification_method": "heuristic" }, "geometry": { "type": "Polygon", "coordinates": [ [ [ 337.0, 102.0 ], [ 337.0, 103.0 ], [ 336.0, 103.0 ], [ 336.0, 104.0 ], [ 335.0, 104.0 ], [ 335.0, 105.0 ], [ 334.0, 105.0 ], [ 334.0, 107.0 ], [ 333.0, 107.0 ], [ 333.0, 108.0 ], [ 332.0, 108.0 ], [ 332.0, 110.0 ], [ 331.0, 110.0 ], [ 331.0, 112.0 ], [ 330.0, 112.0 ], [ 330.0, 114.0 ], [ 329.0, 114.0 ], [ 329.0, 117.0 ], [ 328.0, 117.0 ], [ 328.0, 127.0 ], [ 329.0, 127.0 ], [ 329.0, 129.0 ], [ 331.0, 129.0 ], [ 331.0, 130.0 ], [ 338.0, 130.0 ], [ 338.0, 131.0 ], [ 339.0, 131.0 ], [ 339.0, 125.0 ], [ 340.0, 125.0 ], [ 340.0, 111.0 ], [ 341.0, 111.0 ], [ 341.0, 108.0 ], [ 340.0, 108.0 ], [ 340.0, 107.0 ], [ 341.0, 107.0 ], [ 341.0, 106.0 ], [ 340.0, 106.0 ], [ 340.0, 103.0 ], [ 339.0, 103.0 ], [ 339.0, 102.0 ], [ 337.0, 102.0 ] ] ] } },
{ "type": "Feature", "properties": { "feature_type": "unclassified", "confidence": 0.48, "classification_method": "heuristic" }, "geometry": { "type": "Polygon", "coordinates": [ [ [ 276.0, 98.0 ], [ 276.0, 99.0 ], [ 275.0, 99.0 ], [ 275.0, 101.0 ], [ 274.0, 101.0 ], [ 274.0, 102.0 ], [ 273.0, 102.0 ], [ 273.0, 104.0 ], [ 272.0, 104.0 ], [ 272.0, 105.0 ], [ 271.0, 105.0 ], [ 271.0, 107.0 ], [ 270.0, 107.0 ], [ 270.0, 108.0 ], [ 269.0, 108.0 ], [ 269.0, 110.0 ], [ 268.0, 110.0 ], [ 268.0, 112.0 ], [ 267.0, 112.0 ], [ 267.0, 130.0 ], [ 268.0, 130.0 ], [ 268.0, 131.0 ], [ 269.0, 131.0 ], [ 269.0, 133.0 ], [ 270.0, 133.0 ], [ 270.0, 136.0 ], [ 271.0, 136.0 ], [ 271.0, 138.0 ], [ 272.0, 138.0 ], [ 272.0, 139.0 ], [ 273.0, 139.0 ], [ 273.0, 140.0 ], [ 278.0, 140.0 ], [ 278.0, 137.0 ], [ 279.0, 137.0 ], [ 279.0, 126.0 ], [ 278.0, 126.0 ], [ 278.0, 118.0 ], [ 279.0, 118.0 ], [ 279.0, 114.0 ], [ 278.0, 114.0 ], [ 278.0, 112.0 ], [ 279.0, 112.0 ], [ 279.0, 99.0 ], [ 277.0, 99.0 ], [ 277.0, 98.0 ], [ 276.0, 98.0 ] ] ] } }
]
}
